{"type":"FeatureCollection","features":[{"type":"Feature","id":"11","geometry":{"type":"MultiLineString","coordinates":[[[-95.5743,15.9415],[-95.5753,15.9402],[-95.5769,15.9414],[-95.5743,15.9415]]]},"geometry_name":"geom","properties":{"tipo":"Linea de costa","CVE_ENT":"20"}},{"type":"Feature","id":"115","geometry":{"type":"MultiLineString","coordinates":[[[-87.6403,19.1845],[-87.6445,19.1846],[-87.6471,19.1864],[-87.6457,19.188],[-87.6411,19.188],[-87.6396,19.187],[-87.6403,19.1845]]]},"geometry_name":"geom","properties":{"tipo":"Linea de costa","CVE_ENT":"23"}},{"type":"Feature","id":"116","geometry":{"type":"MultiLineString","coordinates":[[[-87.6297,19.1928],[-87.6286,19.191],[-87.634,19.1931],[-87.6328,19.1949],[-87.6275,19.1967],[-87.6297,19.1928]]]},"geometry_name":"geom","properties":{"tipo":"Linea de costa","CVE_ENT":"23"}},{"type":"Feature","id":"117","geometry":{"type":"MultiLineString","coordinates":[[[-87.6282,19.2027],[-87.631,19.2027],[-87.6287,19.2045],[-87.6282,19.2027]]]},"geometry_name":"geom","properties":{"tipo":"Linea de costa","CVE_ENT":"23"}},{"type":"Feature","id":"118","geometry":{"type":"MultiLineString","coordinates":[[[-87.6501,19.2154],[-87.652,19.2155],[-87.6402,19.2185],[-87.6146,19.236],[-87.6195,19.2302],[-87.6313,19.2215],[-87.6394,19.2176],[-87.6501,19.2154]]]},"geometry_name":"geom","properties":{"tipo":"Linea de costa","CVE_ENT":"23"}},{"type":"Feature","id":"119","geometry":{"type":"MultiLineString","coordinates":[[[-87.602,19.2357],[-87.6054,19.2341],[-87.606,19.2351],[-87.6028,19.2366],[-87.602,19.2357]]]},"geometry_name":"geom","properties":{"tipo":"Linea de costa","CVE_ENT":"23"}},{"type":"Feature","id":"12","geometry":{"type":"MultiLineString","coordinates":[[[-94.0002,16.0031],[-94.0912,16.0436],[-94.1665,16.0809],[-94.2024,16.0968],[-94.2948,16.1306],[-94.384,16.1583],[-94.472,16.1799],[-94.5408,16.192],[-94.6998,16.2099],[-94.7153,16.2104],[-94.7251,16.208],[-94.7394,16.2081],[-94.7566,16.2101],[-94.8021,16.2135],[-94.8628,16.2141],[-94.9236,16.2076],[-95.0277,16.1884],[-95.0627,16.184],[-95.0701,16.1834],[-95.1387,16.1887],[-95.1506,16.1863],[-95.1564,16.1808],[-95.157,16.1774],[-95.1551,16.1732],[-95.1518,16.1707],[-95.1522,16.1676],[-95.1697,16.1648],[-95.1884,16.1684],[-95.1931,16.1704],[-95.194,16.1728],[-95.2029,16.1706],[-95.1977,16.1604],[-95.1979,16.1503],[-95.2025,16.1457],[-95.1983,16.1505],[-95.1983,16.1599],[-95.2104,16.1597],[-95.2352,16.1561],[-95.2481,16.1469],[-95.2494,16.1381],[-95.2465,16.1342],[-95.266,16.1303],[-95.2721,16.1278],[-95.2801,16.1211],[-95.2803,16.1156],[-95.2765,16.108],[-95.287,16.1016],[-95.3031,16.099],[-95.3054,16.0975],[-95.3055,16.0944],[-95.3067,16.0939],[-95.3255,16.0913],[-95.34,16.0873],[-95.3547,16.0785],[-95.3643,16.0675],[-95.378,16.0463],[-95.3768,16.0374],[-95.3678,16.0227],[-95.3682,16.0207],[-95.3948,16.0134],[-95.3975,16.0114],[-95.3996,16.0064],[-95.4184,16.0023],[-95.4241,15.9997],[-95.4263,15.9967],[-95.4309,15.9811],[-95.4359,15.9761],[-95.4661,15.9769],[-95.4863,15.9756],[-95.4941,15.973],[-95.496,15.9663],[-95.5137,15.9638],[-95.521,15.9612],[-95.5685,15.9578],[-95.5794,15.9518],[-95.5802,15.9476],[-95.5839,15.945],[-95.6056,15.9425],[-95.6133,15.9357],[-95.614,15.9332],[-95.6124,15.9316],[-95.62,15.928],[-95.6453,15.9234],[-95.6598,15.9169],[-95.6625,15.9124],[-95.6822,15.9116],[-95.7121,15.9078],[-95.7604,15.8977],[-95.77,15.8946],[-95.7763,15.8899],[-95.78,15.8848],[-95.7804,15.881],[-95.7762,15.8742],[-95.7766,15.8713],[-95.8062,15.8694],[-95.812,15.8669],[-95.8336,15.8637],[-95.8486,15.8593],[-95.8546,15.8562],[-95.8756,15.8525],[-95.8808,15.8502],[-95.8849,15.8444],[-95.9475,15.8316],[-95.9622,15.8262],[-95.9658,15.8226],[-95.966,15.8192],[-95.9807,15.8123],[-95.9901,15.8115],[-96.0034,15.8081],[-96.0095,15.8054],[-96.0125,15.8016],[-96.0292,15.7928],[-96.0451,15.7887],[-96.0534,15.7873],[-96.0641,15.7798],[-96.0729,15.7776],[-96.0758,15.7735],[-96.0753,15.7699],[-96.0736,15.7687],[-96.0761,15.7661],[-96.0942,15.7736],[-96.0992,15.7704],[-96.099,15.7596],[-96.1079,15.7576],[-96.1117,15.7632],[-96.1213,15.764],[-96.124,15.7577],[-96.1315,15.7524],[-96.1241,15.7407],[-96.1319,15.7364],[-96.1387,15.7351],[-96.1464,15.7366],[-96.1509,15.7339],[-96.152,15.7314],[-96.1437,15.7277],[-96.1524,15.7233],[-96.1586,15.7257],[-96.1649,15.7229],[-96.1711,15.717],[-96.192,15.7083],[-96.1968,15.7098],[-96.2052,15.7082],[-96.2082,15.7013],[-96.2149,15.7008],[-96.2297,15.69],[-96.2424,15.6847],[-96.2809,15.6862],[-96.2888,15.6846],[-96.3331,15.6877],[-96.3394,15.6845],[-96.3462,15.6861],[-96.3478,15.6894],[-96.3516,15.6902],[-96.3613,15.6817],[-96.3662,15.6829],[-96.3677,15.6857],[-96.3753,15.6884],[-96.3844,15.6894],[-96.388,15.6881],[-96.4131,15.6943],[-96.4332,15.6948],[-96.4405,15.6916],[-96.453,15.6812],[-96.4625,15.6836],[-96.4643,15.6826],[-96.4809,15.6648],[-96.4834,15.6631],[-96.4908,15.662],[-96.4956,15.6583],[-96.4987,15.6574],[-96.5087,15.6589],[-96.5111,15.6615],[-96.5158,15.6624],[-96.525,15.6621],[-96.5287,15.6611],[-96.5424,15.665],[-96.5523,15.6649],[-96.5614,15.6619],[-96.5745,15.6673],[-96.6142,15.6793],[-96.6584,15.7015],[-96.6871,15.7107],[-96.7017,15.7169],[-96.7438,15.7251],[-96.7668,15.7272],[-96.805,15.7336],[-96.839,15.7328],[-96.8528,15.7372],[-96.8585,15.7394],[-96.9095,15.7707],[-96.9352,15.7831],[-96.9649,15.7936],[-97.0144,15.8055],[-97.0239,15.8096],[-97.0488,15.8279],[-97.046,15.8308],[-97.0466,15.8358],[-97.0623,15.8602],[-97.0664,15.8565],[-97.0705,15.8556],[-97.0818,15.8587],[-97.1061,15.8719],[-97.1247,15.8866],[-97.1396,15.8955],[-97.166,15.9074],[-97.2106,15.9227],[-97.2401,15.9282],[-97.2738,15.9382],[-97.2881,15.9377],[-97.3338,15.9457],[-97.3442,15.9462],[-97.3587,15.9444],[-97.3619,15.9425],[-97.3623,15.9399],[-97.3686,15.9375],[-97.4101,15.944],[-97.4181,15.9439],[-97.4221,15.9414],[-97.4775,15.9534],[-97.5209,15.9674],[-97.5314,15.9692],[-97.5357,15.969],[-97.5455,15.9649],[-97.5649,15.9629],[-97.6186,15.9754],[-97.6558,15.9778],[-97.6637,15.9768],[-97.6709,15.9738],[-97.6786,15.9668],[-97.6758,15.9654],[-97.6767,15.9634],[-97.6894,15.9634],[-97.7447,15.9739],[-97.7705,15.977],[-97.7864,15.981],[-97.7895,15.9827],[-97.7905,15.9857],[-97.7936,15.9898],[-97.8093,16.0004],[-97.8275,16.0088],[-97.8546,16.0253],[-97.9068,16.0625],[-97.9597,16.0992],[-97.9897,16.1152],[-98.0402,16.144],[-98.1074,16.1793],[-98.1363,16.1927],[-98.1837,16.2119],[-98.1924,16.2216],[-98.2067,16.2296],[-98.2263,16.2369],[-98.2454,16.2419],[-98.2953,16.2525],[-98.3283,16.2578],[-98.4065,16.2668],[-98.4208,16.2696],[-98.4317,16.2736],[-98.4588,16.2815],[-98.5187,16.3049],[-98.5496,16.3135],[-98.5526,16.316]]]},"geometry_name":"geom","properties":{"tipo":"Linea de costa","CVE_ENT":"20"}},{"type":"Feature","id":"120","geometry":{"type":"MultiLineString","coordinates":[[[-87.4643,19.329],[-87.4655,19.3266],[-87.4672,19.3329],[-87.4712,19.3348],[-87.4675,19.3339],[-87.4643,19.329]]]},"geometry_name":"geom","properties":{"tipo":"Linea de costa","CVE_ENT":"23"}},{"type":"Feature","id":"121","geometry":{"type":"MultiLineString","coordinates":[[[-87.4784,19.339],[-87.4793,19.3354],[-87.4815,19.336],[-87.4938,19.3488],[-87.515,19.3573],[-87.5181,19.3641],[-87.5182,19.3711],[-87.5106,19.3661],[-87.5056,19.3649],[-87.5011,19.3616],[-87.4952,19.3536],[-87.4834,19.3445],[-87.4784,19.339]]]},"geometry_name":"geom","properties":{"tipo":"Linea de costa","CVE_ENT":"23"}},{"type":"Feature","id":"124","geometry":{"type":"MultiLineString","coordinates":[[[-87.5655,19.3937],[-87.5674,19.3932],[-87.5727,19.3957],[-87.5732,19.398],[-87.5709,19.3982],[-87.5654,19.3973],[-87.5655,19.3937]]]},"geometry_name":"geom","properties":{"tipo":"Linea de costa","CVE_ENT":"23"}},{"type":"Feature","id":"125","geometry":{"type":"MultiLineString","coordinates":[[[-87.5494,19.4124],[-87.5495,19.4084],[-87.5555,19.4107],[-87.5544,19.4137],[-87.5519,19.4128],[-87.5494,19.4124]]]},"geometry_name":"geom","properties":{"tipo":"Linea de costa","CVE_ENT":"23"}},{"type":"Feature","id":"126","geometry":{"type":"MultiLineString","coordinates":[[[-87.6591,19.5045],[-87.6618,19.5047],[-87.6596,19.5079],[-87.6591,19.5045]]]},"geometry_name":"geom","properties":{"tipo":"Linea de costa","CVE_ENT":"23"}},{"type":"Feature","id":"127","geometry":{"type":"MultiLineString","coordinates":[[[-87.6606,19.5099],[-87.6619,19.5098],[-87.6573,19.5171],[-87.6572,19.5125],[-87.6606,19.5099]]]},"geometry_name":"geom","properties":{"tipo":"Linea de costa","CVE_ENT":"23"}},{"type":"Feature","id":"128","geometry":{"type":"MultiLineString","coordinates":[[[-87.5759,19.5657],[-87.5774,19.5652],[-87.5769,19.566],[-87.5759,19.5657]]]},"geometry_name":"geom","properties":{"tipo":"Linea de costa","CVE_ENT":"23"}},{"type":"Feature","id":"129","geometry":{"type":"MultiLineString","coordinates":[[[-87.5663,19.5777],[-87.5671,19.5766],[-87.5675,19.5772],[-87.5663,19.5777]]]},"geometry_name":"geom","properties":{"tipo":"Linea de costa","CVE_ENT":"23"}},{"type":"Feature","id":"130","geometry":{"type":"MultiLineString","coordinates":[[[-87.6999,19.591],[-87.6906,19.5879],[-87.6755,19.5874],[-87.6947,19.5872],[-87.713,19.5897],[-87.7121,19.5908],[-87.6999,19.591]]]},"geometry_name":"geom","properties":{"tipo":"Linea de costa","CVE_ENT":"23"}},{"type":"Feature","id":"131","geometry":{"type":"MultiLineString","coordinates":[[[-87.6594,19.588],[-87.6593,19.5874],[-87.6601,19.5878],[-87.6594,19.588]]]},"geometry_name":"geom","properties":{"tipo":"Linea de costa","CVE_ENT":"23"}},{"type":"Feature","id":"132","geometry":{"type":"MultiLineString","coordinates":[[[-87.647,19.5874],[-87.6478,19.5867],[-87.6484,19.5872],[-87.647,19.5874]]]},"geometry_name":"geom","properties":{"tipo":"Linea de costa","CVE_ENT":"23"}},{"type":"Feature","id":"133","geometry":{"type":"MultiLineString","coordinates":[[[-87.5615,19.5812],[-87.5619,19.5801],[-87.5626,19.5804],[-87.5615,19.5812]]]},"geometry_name":"geom","properties":{"tipo":"Linea de costa","CVE_ENT":"23"}},{"type":"Feature","id":"134","geometry":{"type":"MultiLineString","coordinates":[[[-87.636,19.5889],[-87.6382,19.5874],[-87.6391,19.588],[-87.636,19.5889]]]},"geometry_name":"geom","properties":{"tipo":"Linea de costa","CVE_ENT":"23"}},{"type":"Feature","id":"135","geometry":{"type":"MultiLineString","coordinates":[[[-87.5577,19.5833],[-87.5582,19.5831],[-87.5585,19.5837],[-87.5577,19.5833]]]},"geometry_name":"geom","properties":{"tipo":"Linea de costa","CVE_ENT":"23"}},{"type":"Feature","id":"136","geometry":{"type":"MultiLineString","coordinates":[[[-87.4977,19.5926],[-87.4965,19.5899],[-87.4993,19.5926],[-87.4977,19.5926]]]},"geometry_name":"geom","properties":{"tipo":"Linea de costa","CVE_ENT":"23"}},{"type":"Feature","id":"137","geometry":{"type":"MultiLineString","coordinates":[[[-87.4903,19.5976],[-87.4918,19.5949],[-87.4939,19.5951],[-87.4908,19.5989],[-87.4903,19.5976]]]},"geometry_name":"geom","properties":{"tipo":"Linea de costa","CVE_ENT":"23"}},{"type":"Feature","id":"138","geometry":{"type":"MultiLineString","coordinates":[[[-87.4635,19.5984],[-87.4621,19.5944],[-87.4647,19.5977],[-87.4635,19.5984]]]},"geometry_name":"geom","properties":{"tipo":"Linea de costa","CVE_ENT":"23"}},{"type":"Feature","id":"139","geometry":{"type":"MultiLineString","coordinates":[[[-87.4554,19.5982],[-87.4556,19.5958],[-87.4583,19.5961],[-87.4587,19.5978],[-87.4554,19.5982]]]},"geometry_name":"geom","properties":{"tipo":"Linea de costa","CVE_ENT":"23"}},{"type":"Feature","id":"141","geometry":{"type":"MultiLineString","coordinates":[[[-87.4629,19.6008],[-87.4627,19.5988],[-87.4726,19.6007],[-87.4715,19.6018],[-87.4629,19.6008]]]},"geometry_name":"geom","properties":{"tipo":"Linea de costa","CVE_ENT":"23"}},{"type":"Feature","id":"143","geometry":{"type":"MultiLineString","coordinates":[[[-87.4789,19.5998],[-87.4815,19.5974],[-87.4846,19.5986],[-87.4942,19.603],[-87.4939,19.6058],[-87.4924,19.6049],[-87.4784,19.6023],[-87.4789,19.5998]]]},"geometry_name":"geom","properties":{"tipo":"Linea de costa","CVE_ENT":"23"}},{"type":"Feature","id":"144","geometry":{"type":"MultiLineString","coordinates":[[[-87.5179,19.6118],[-87.5234,19.6047],[-87.5217,19.6077],[-87.5234,19.6129],[-87.519,19.6127],[-87.5179,19.6118]]]},"geometry_name":"geom","properties":{"tipo":"Linea de costa","CVE_ENT":"23"}},{"type":"Feature","id":"145","geometry":{"type":"MultiLineString","coordinates":[[[-87.4923,19.611],[-87.4951,19.607],[-87.4956,19.6099],[-87.4923,19.611]]]},"geometry_name":"geom","properties":{"tipo":"Linea de costa","CVE_ENT":"23"}},{"type":"Feature","id":"147","geometry":{"type":"MultiLineString","coordinates":[[[-87.464,19.6067],[-87.4639,19.6052],[-87.4664,19.607],[-87.4661,19.6133],[-87.464,19.6067]]]},"geometry_name":"geom","properties":{"tipo":"Linea de costa","CVE_ENT":"23"}},{"type":"Feature","id":"148","geometry":{"type":"MultiLineString","coordinates":[[[-87.6976,19.6431],[-87.6994,19.6426],[-87.6994,19.6462],[-87.6967,19.6455],[-87.6976,19.6431]]]},"geometry_name":"geom","properties":{"tipo":"Linea de costa","CVE_ENT":"23"}},{"type":"Feature","id":"149","geometry":{"type":"MultiLineString","coordinates":[[[-87.515,19.6289],[-87.5165,19.6271],[-87.5175,19.6278],[-87.5207,19.6232],[-87.5191,19.6286],[-87.5166,19.6298],[-87.515,19.6289]]]},"geometry_name":"geom","properties":{"tipo":"Linea de costa","CVE_ENT":"23"}},{"type":"Feature","id":"150","geometry":{"type":"MultiLineString","coordinates":[[[-87.6736,19.6438],[-87.6741,19.6412],[-87.6801,19.642],[-87.6816,19.6442],[-87.6809,19.6464],[-87.6789,19.6467],[-87.6736,19.6438]]]},"geometry_name":"geom","properties":{"tipo":"Linea de costa","CVE_ENT":"23"}},{"type":"Feature","id":"151","geometry":{"type":"MultiLineString","coordinates":[[[-87.7043,19.646],[-87.7102,19.6463],[-87.7135,19.6488],[-87.708,19.65],[-87.7044,19.648],[-87.7043,19.646]]]},"geometry_name":"geom","properties":{"tipo":"Linea de costa","CVE_ENT":"23"}},{"type":"Feature","id":"154","geometry":{"type":"MultiLineString","coordinates":[[[-87.4573,19.6922],[-87.4582,19.6908],[-87.4643,19.6947],[-87.4617,19.6958],[-87.459,19.6944],[-87.4573,19.6922]]]},"geometry_name":"geom","properties":{"tipo":"Linea de costa","CVE_ENT":"23"}},{"type":"Feature","id":"156","geometry":{"type":"MultiLineString","coordinates":[[[-87.4663,19.6985],[-87.4643,19.6938],[-87.4685,19.6953],[-87.4678,19.6983],[-87.4663,19.6985]]]},"geometry_name":"geom","properties":{"tipo":"Linea de costa","CVE_ENT":"23"}},{"type":"Feature","id":"157","geometry":{"type":"MultiLineString","coordinates":[[[-87.4683,19.6992],[-87.4713,19.6994],[-87.4778,19.7033],[-87.4779,19.705],[-87.4759,19.7046],[-87.4706,19.7035],[-87.4683,19.6992]]]},"geometry_name":"geom","properties":{"tipo":"Linea de costa","CVE_ENT":"23"}},{"type":"Feature","id":"158","geometry":{"type":"MultiLineString","coordinates":[[[-87.4791,19.7053],[-87.4788,19.7038],[-87.4795,19.704],[-87.4791,19.7053]]]},"geometry_name":"geom","properties":{"tipo":"Linea de costa","CVE_ENT":"23"}},{"type":"Feature","id":"159","geometry":{"type":"MultiLineString","coordinates":[[[-87.4797,19.7046],[-87.4865,19.7042],[-87.5059,19.71],[-87.5056,19.7112],[-87.5017,19.7115],[-87.484,19.7069],[-87.4797,19.7046]]]},"geometry_name":"geom","properties":{"tipo":"Linea de costa","CVE_ENT":"23"}},{"type":"Feature","id":"16","geometry":{"type":"MultiLineString","coordinates":[[[-91.4397,17.251],[-91.4288,17.2185],[-91.4188,17.2093],[-91.4034,17.2046],[-91.3866,17.2064],[-91.3764,17.2049],[-91.3717,17.2024],[-91.3656,17.1963],[-91.3545,17.1905],[-91.347,17.1768],[-91.3503,17.1645],[-91.3492,17.16],[-91.3397,17.1585],[-91.3356,17.1612],[-91.3312,17.1768],[-91.3245,17.1827],[-91.3185,17.1829],[-91.309,17.1794],[-91.3019,17.1808],[-91.2848,17.1781],[-91.2791,17.1796],[-91.2664,17.1701],[-91.2631,17.1645],[-91.2632,17.1598],[-91.2649,17.1541],[-91.2724,17.1428],[-91.2723,17.1261],[-91.2685,17.1102],[-91.2604,17.103],[-91.2547,17.1007],[-91.2345,17.1006],[-91.227,17.0951],[-91.2173,17.0766],[-91.2171,17.065],[-91.2103,17.0531],[-91.2034,17.0449],[-91.1898,17.0348],[-91.1753,17.0157],[-91.1544,17.0049],[-91.1496,17.0042],[-91.1381,17.0068],[-91.1309,17.0066],[-91.127,17.006],[-91.1222,17.0028],[-91.1198,16.9963],[-91.1222,16.983],[-91.12,16.9775],[-91.1163,16.9744],[-91.1125,16.9744],[-91.1044,16.9702],[-91.0992,16.9651],[-91.0932,16.9518],[-91.0798,16.9435],[-91.0645,16.9251],[-91.0646,16.9221],[-91.0677,16.9187],[-91.0725,16.9166],[-91.074,16.9136],[-91.0731,16.9103],[-91.0656,16.9029],[-91.06,16.8998],[-91.0071,16.8862],[-90.9939,16.8771],[-90.99,16.8644],[-90.9878,16.8631],[-90.9823,16.8658],[-90.9805,16.8727],[-90.9806,16.8771],[-90.9863,16.8917],[-90.9851,16.898],[-90.9819,16.9009],[-90.9761,16.9029],[-90.965,16.9015],[-90.9573,16.8966],[-90.9545,16.8845],[-90.9577,16.8786],[-90.9721,16.871],[-90.9745,16.8671],[-90.9741,16.8636],[-90.9679,16.8604],[-90.9568,16.8652],[-90.95,16.8654],[-90.9336,16.8593],[-90.9322,16.8552],[-90.9342,16.8476],[-90.9339,16.8423],[-90.9218,16.8219],[-90.9162,16.8205],[-90.9027,16.8222],[-90.892,16.8252],[-90.8777,16.8238],[-90.8721,16.8208],[-90.8613,16.8116],[-90.8556,16.7988],[-90.8488,16.7965],[-90.8369,16.796],[-90.8223,16.799],[-90.8041,16.7987],[-90.8017,16.7951],[-90.8049,16.7821],[-90.8028,16.7762],[-90.7824,16.7682],[-90.7624,16.7628],[-90.7586,16.7594],[-90.7568,16.7511],[-90.7225,16.7297],[-90.7153,16.7279],[-90.7094,16.7219],[-90.7078,16.7181],[-90.7074,16.7152],[-90.7099,16.7094],[-90.7095,16.7048],[-90.6987,16.6997],[-90.6894,16.6916],[-90.6817,16.6886],[-90.6794,16.6834],[-90.6794,16.6735],[-90.6759,16.6606],[-90.6576,16.6395],[-90.6573,16.6371],[-90.6621,16.6289],[-90.6602,16.6195],[-90.6556,16.6111],[-90.6534,16.5945],[-90.6554,16.5922],[-90.6664,16.5897],[-90.6677,16.588],[-90.6668,16.5818],[-90.6614,16.578],[-90.6547,16.5772],[-90.6446,16.5791],[-90.6403,16.5864],[-90.6419,16.5959],[-90.6352,16.5923],[-90.6256,16.5777],[-90.6262,16.5755],[-90.6391,16.5692],[-90.6471,16.5605],[-90.6482,16.5474],[-90.6426,16.5343],[-90.645,16.5176],[-90.6421,16.5145],[-90.6356,16.5135],[-90.6176,16.5221],[-90.6104,16.5163],[-90.6057,16.5051],[-90.6079,16.4959],[-90.6138,16.4913],[-90.6214,16.4878],[-90.6297,16.4901],[-90.6334,16.4891],[-90.6349,16.4835],[-90.6325,16.4801],[-90.6277,16.4776],[-90.6204,16.4772],[-90.6166,16.4798],[-90.6134,16.4884],[-90.5944,16.4907],[-90.5924,16.4877],[-90.5937,16.4753],[-90.5898,16.4701],[-90.5867,16.4695],[-90.5502,16.4821],[-90.544,16.4817],[-90.5432,16.4787],[-90.548,16.472],[-90.5469,16.4681],[-90.5278,16.4577],[-90.5251,16.4587],[-90.5255,16.4644],[-90.5238,16.4672],[-90.5142,16.4699],[-90.5006,16.4669],[-90.499,16.4649],[-90.4994,16.4575],[-90.4958,16.4535],[-90.4916,16.454],[-90.4851,16.4611],[-90.4819,16.4616],[-90.4781,16.4598],[-90.4783,16.442],[-90.487,16.4293],[-90.487,16.4254],[-90.4846,16.423],[-90.4718,16.425],[-90.4588,16.421],[-90.4439,16.4243],[-90.4207,16.4249],[-90.4161,16.4216],[-90.4117,16.4074],[-90.4077,16.404],[-90.4022,16.407],[-90.3979,16.4162],[-90.3943,16.4159],[-90.3873,16.412],[-90.3891,16.4035],[-90.4013,16.3986],[-90.4018,16.393],[-90.3968,16.3853],[-90.3865,16.3779],[-90.3729,16.3744],[-90.3704,16.3695],[-90.3707,16.3647],[-90.3746,16.3596],[-90.3797,16.36],[-90.3824,16.3622],[-90.3839,16.3674],[-90.3889,16.3728],[-90.3958,16.3745],[-90.4011,16.3714],[-90.4098,16.363],[-90.4121,16.3557],[-90.4093,16.3459],[-90.407,16.3459],[-90.4062,16.3477],[-90.4081,16.3543],[-90.4075,16.3589],[-90.403,16.3611],[-90.4007,16.3584],[-90.4009,16.3523],[-90.3992,16.3494],[-90.3833,16.3452],[-90.3815,16.3425],[-90.3816,16.3384],[-90.3842,16.335],[-90.3869,16.3342],[-90.3892,16.3348],[-90.3933,16.3392],[-90.3975,16.3396],[-90.41,16.3292],[-90.4121,16.3247],[-90.4087,16.3162],[-90.4087,16.3123],[-90.4116,16.3072],[-90.4182,16.3047],[-90.4327,16.3051],[-90.4386,16.3021],[-90.4389,16.298],[-90.4329,16.2951],[-90.4318,16.2922],[-90.433,16.2903],[-90.44,16.2872],[-90.4405,16.2798],[-90.4382,16.2765],[-90.4322,16.2746],[-90.4272,16.2696],[-90.4229,16.2631],[-90.4224,16.2592],[-90.4252,16.2552],[-90.4283,16.2539],[-90.4313,16.2547],[-90.4388,16.2608],[-90.4455,16.2615],[-90.4497,16.2575],[-90.4549,16.2469],[-90.4535,16.2421],[-90.4494,16.2405],[-90.4392,16.2465],[-90.4281,16.2346],[-90.4288,16.2303],[-90.4381,16.2317],[-90.4512,16.2249],[-90.4546,16.2193],[-90.4567,16.2095],[-90.452,16.185],[-90.4475,16.1824],[-90.4392,16.1814],[-90.4315,16.1776],[-90.4266,16.1732],[-90.4245,16.1632],[-90.4352,16.1567],[-90.4453,16.1551],[-90.4499,16.151],[-90.4502,16.1473],[-90.4485,16.1438],[-90.4383,16.1427],[-90.4287,16.1393],[-90.4286,16.121],[-90.4298,16.1178],[-90.4338,16.1169],[-90.4455,16.1204],[-90.45,16.1245],[-90.4528,16.1236],[-90.4571,16.1088],[-90.4556,16.0934],[-90.4522,16.092],[-90.4476,16.0925],[-90.4412,16.1005],[-90.4318,16.1059],[-90.4259,16.1048],[-90.4241,16.0995],[-90.4268,16.0954],[-90.4352,16.096],[-90.4452,16.083],[-90.4452,16.0805],[-90.4408,16.0742],[-90.7915,16.0742],[-90.9612,16.074],[-91.1658,16.0743],[-91.2967,16.0744],[-91.3818,16.0743],[-91.7314,16.074],[-91.9219,15.7515],[-91.9901,15.6358],[-92.1287,15.3999],[-92.21,15.2612],[-92.184,15.2276],[-92.1629,15.2012],[-92.1079,15.1319],[-92.0592,15.0703],[-92.0637,15.0699],[-92.0732,15.0615],[-92.0723,15.0577],[-92.0684,15.0554],[-92.0702,15.0468],[-92.0727,15.0442],[-92.0779,15.0459],[-92.0787,15.0323],[-92.0803,15.0285],[-92.0857,15.0207],[-92.091,15.0198],[-92.0973,15.0151],[-92.0984,15.0099],[-92.1276,15.0149],[-92.1308,15.0132],[-92.1341,15.0087],[-92.1394,14.9946],[-92.1485,14.9892],[-92.1508,14.9869],[-92.151,14.9845],[-92.1464,14.9792],[-92.1448,14.9749],[-92.1485,14.9547],[-92.1483,14.9485],[-92.1433,14.9398],[-92.1436,14.9279],[-92.1412,14.9226],[-92.1447,14.9095],[-92.1416,14.9064],[-92.1362,14.8916],[-92.1379,14.8865],[-92.1418,14.8825],[-92.1466,14.8702],[-92.1659,14.8603],[-92.1815,14.8474],[-92.1848,14.8283],[-92.1771,14.8158],[-92.1789,14.8104],[-92.178,14.805],[-92.1773,14.801],[-92.1711,14.7894],[-92.1649,14.783],[-92.1607,14.7735],[-92.1619,14.762],[-92.1643,14.7592],[-92.1718,14.7567],[-92.1699,14.7448],[-92.1578,14.7364],[-92.1555,14.7309],[-92.1544,14.726],[-92.1478,14.7202],[-92.149,14.7054],[-92.1457,14.6944],[-92.1474,14.674],[-92.1459,14.6628],[-92.1501,14.6559],[-92.1655,14.6416],[-92.1771,14.6262],[-92.1812,14.6145],[-92.1753,14.6131],[-92.1744,14.6116],[-92.1799,14.5942],[-92.1825,14.5783],[-92.1982,14.5643],[-92.2153,14.5569],[-92.2165,14.5536],[-92.2165,14.5431],[-92.2211,14.535],[-92.2268,14.5321]]]},"geometry_name":"geom","properties":{"tipo":"Frontera","CVE_ENT":"07"}},{"type":"Feature","id":"16","geometry":{"type":"MultiLineString","coordinates":[[[-92.2268,14.5321],[-92.3196,14.6183],[-92.3654,14.6594],[-92.39,14.6797],[-92.4115,14.6948],[-92.409,14.703],[-92.4288,14.7215],[-92.437,14.7323],[-92.4664,14.7575],[-92.5175,14.8067],[-92.6156,14.9081],[-92.6761,14.9731],[-92.7326,15.0308],[-92.7953,15.0952],[-92.8514,15.1499],[-92.88,15.183],[-92.931,15.2312],[-92.987,15.2842],[-93.1237,15.4091],[-93.19,15.4693],[-93.3323,15.5911],[-93.4518,15.6864],[-93.5144,15.7343],[-93.5957,15.794],[-93.6977,15.864],[-93.7612,15.9039],[-93.808,15.9309],[-93.8684,15.9625],[-93.9068,15.9794],[-93.9171,15.9829],[-93.9285,15.9813],[-93.9412,15.983],[-93.9455,15.985],[-93.9572,15.9846],[-94.0002,16.0031]]]},"geometry_name":"geom","properties":{"tipo":"Linea de costa","CVE_ENT":"07"}},{"type":"Feature","id":"160","geometry":{"type":"MultiLineString","coordinates":[[[-91.9565,20.197],[-91.9555,20.1961],[-91.9577,20.1967],[-91.9565,20.197]]]},"geometry_name":"geom","properties":{"tipo":"Linea de costa","CVE_ENT":"04"}},{"type":"Feature","id":"161","geometry":{"type":"MultiLineString","coordinates":[[[-91.9785,20.204],[-91.9776,20.2033],[-91.979,20.204],[-91.9785,20.204]]]},"geometry_name":"geom","properties":{"tipo":"Linea de costa","CVE_ENT":"04"}},{"type":"Feature","id":"162","geometry":{"type":"MultiLineString","coordinates":[[[-91.9615,20.2022],[-91.9631,20.2017],[-91.9641,20.2024],[-91.9615,20.2054],[-91.9615,20.2022]]]},"geometry_name":"geom","properties":{"tipo":"Linea de costa","CVE_ENT":"04"}},{"type":"Feature","id":"166","geometry":{"type":"MultiLineString","coordinates":[[[-90.4963,20.3437],[-90.4972,20.3423],[-90.4987,20.3442],[-90.4963,20.3437]]]},"geometry_name":"geom","properties":{"tipo":"Linea de costa","CVE_ENT":"04"}},{"type":"Feature","id":"170","geometry":{"type":"MultiLineString","coordinates":[[[-90.4709,20.6038],[-90.4709,20.5984],[-90.4744,20.5997],[-90.4783,20.6183],[-90.4728,20.6319],[-90.471,20.6505],[-90.4697,20.6531],[-90.4648,20.6442],[-90.4704,20.6215],[-90.4747,20.6107],[-90.4709,20.6038]]]},"geometry_name":"geom","properties":{"tipo":"Linea de costa","CVE_ENT":"04"}},{"type":"Feature","id":"171","geometry":{"type":"MultiLineString","coordinates":[[[-90.4604,20.6441],[-90.4621,20.6434],[-90.4643,20.6505],[-90.4704,20.6561],[-90.4694,20.6584],[-90.466,20.6584],[-90.4616,20.6555],[-90.4604,20.6441]]]},"geometry_name":"geom","properties":{"tipo":"Linea de costa","CVE_ENT":"04"}},{"type":"Feature","id":"172","geometry":{"type":"MultiLineString","coordinates":[[[-90.4516,20.6656],[-90.4541,20.6559],[-90.4657,20.6674],[-90.4668,20.6757],[-90.4586,20.6937],[-90.4525,20.6823],[-90.4544,20.6731],[-90.4518,20.6701],[-90.4516,20.6656]]]},"geometry_name":"geom","properties":{"tipo":"Linea de costa","CVE_ENT":"04"}},{"type":"Feature","id":"173","geometry":{"type":"MultiLineString","coordinates":[[[-92.2241,20.908],[-92.2389,20.8985],[-92.2453,20.9018],[-92.2441,20.9036],[-92.2286,20.9106],[-92.2247,20.9137],[-92.2218,20.9121],[-92.2241,20.908]]]},"geometry_name":"geom","properties":{"tipo":"Linea de costa","CVE_ENT":"31"}},{"type":"Feature","id":"174","geometry":{"type":"MultiLineString","coordinates":[[[-92.2002,20.9246],[-92.2005,20.9241],[-92.2012,20.9252],[-92.2002,20.9246]]]},"geometry_name":"geom","properties":{"tipo":"Linea de costa","CVE_ENT":"31"}},{"type":"Feature","id":"175","geometry":{"type":"MultiLineString","coordinates":[[[-92.1973,20.9288],[-92.1982,20.9258],[-92.1996,20.9262],[-92.1973,20.9288]]]},"geometry_name":"geom","properties":{"tipo":"Linea de costa","CVE_ENT":"31"}},{"type":"Feature","id":"176","geometry":{"type":"MultiLineString","coordinates":[[[-92.2057,20.9194],[-92.213,20.9135],[-92.2157,20.9139],[-92.2171,20.9194],[-92.2031,20.9341],[-92.2007,20.9346],[-92.1988,20.9334],[-92.1984,20.9301],[-92.2041,20.925],[-92.2027,20.9225],[-92.2057,20.9194]]]},"geometry_name":"geom","properties":{"tipo":"Linea de costa","CVE_ENT":"31"}},{"type":"Feature","id":"177","geometry":{"type":"MultiLineString","coordinates":[[[-92.4688,18.651],[-92.3927,18.6656],[-92.3638,18.6696],[-92.2854,18.6741],[-92.1469,18.689],[-92.1309,18.6889],[-92.0888,18.6936],[-92.081,18.6924],[-92.0644,18.6931],[-92.0438,18.6968],[-91.976,18.6994],[-91.9566,18.6958],[-91.9509,18.6929],[-91.9395,18.6785],[-91.927,18.6668],[-91.9221,18.6591],[-91.9149,18.642],[-91.9009,18.6302],[-91.8785,18.6177],[-91.8567,18.6126],[-91.8259,18.6302],[-91.832,18.6316],[-91.842,18.6427],[-91.8502,18.6463],[-91.8527,18.6511],[-91.8529,18.6535],[-91.8416,18.6641],[-91.7937,18.6671],[-91.7436,18.6791],[-91.7196,18.6883],[-91.7009,18.6986],[-91.6993,18.7009],[-91.6992,18.7054],[-91.6969,18.7068],[-91.6854,18.7116],[-91.6604,18.7181],[-91.6393,18.7329],[-91.5578,18.7655],[-91.5494,18.7693],[-91.5344,18.7798],[-91.5307,18.7801],[-91.5285,18.769],[-91.5224,18.7656],[-91.4983,18.7816],[-91.5007,18.7859],[-91.4975,18.792],[-91.45,18.8305],[-91.4212,18.865],[-91.4022,18.8852],[-91.3932,18.8924],[-91.3294,18.9288],[-91.289,18.9476],[-91.2341,18.9691],[-91.1842,18.994],[-91.1855,18.9966],[-91.1633,19.0066],[-91.1182,19.032],[-91.1109,19.0375],[-91.1112,19.0442],[-91.0923,19.0568],[-91.0805,19.0679],[-90.9933,19.1193],[-90.908,19.1772],[-90.8992,19.1837],[-90.8974,19.1878],[-90.8341,19.2431],[-90.7971,19.2711],[-90.7656,19.2998],[-90.7405,19.3296],[-90.728,19.3531],[-90.7227,19.3589],[-90.722,19.3653],[-90.7256,19.3823],[-90.7252,19.4012],[-90.7232,19.4079],[-90.7153,19.4231],[-90.7104,19.4395],[-90.7065,19.4598],[-90.7077,19.468],[-90.7032,19.4838],[-90.7039,19.4996],[-90.7078,19.5053],[-90.7108,19.5146],[-90.7041,19.5536],[-90.7071,19.5685],[-90.6911,19.6023],[-90.6864,19.6188],[-90.6861,19.6314],[-90.6939,19.6456],[-90.7074,19.6543],[-90.7377,19.6548],[-90.738,19.6522],[-90.7437,19.6551],[-90.7064,19.6547],[-90.7036,19.6633],[-90.7046,19.6681],[-90.7096,19.6705],[-90.707,19.6757],[-90.6897,19.6923],[-90.6697,19.72],[-90.6667,19.7288],[-90.6702,19.7354],[-90.6613,19.7589],[-90.641,19.7749],[-90.6232,19.7937],[-90.614,19.7971],[-90.5965,19.811],[-90.5538,19.8354],[-90.5334,19.8538],[-90.5221,19.8584],[-90.5073,19.8688],[-90.4867,19.896],[-90.4766,19.9137],[-90.4717,19.9257],[-90.4617,19.9344],[-90.4522,19.9579],[-90.4491,19.9612],[-90.4473,19.9595],[-90.4486,19.9615],[-90.4494,19.9614],[-90.4507,19.9599],[-90.4516,19.9596],[-90.4538,19.9619],[-90.4546,19.965],[-90.4521,19.9741],[-90.4596,19.9742],[-90.4612,19.9729],[-90.4695,19.9846],[-90.4707,19.9954],[-90.4656,19.9982],[-90.462,20.0022],[-90.4633,20.0076],[-90.4654,20.0151],[-90.472,20.0258],[-90.4786,20.031],[-90.4832,20.0451],[-90.4912,20.061],[-90.4859,20.0701],[-90.4865,20.0877],[-90.4846,20.0927],[-90.4801,20.0963],[-90.4788,20.1132],[-90.4822,20.1272],[-90.4874,20.1357],[-90.4888,20.1424],[-90.4937,20.1529],[-90.4952,20.1601],[-90.4885,20.17],[-90.4797,20.1738],[-90.4775,20.1856],[-90.4779,20.1917],[-90.4807,20.2027],[-90.4848,20.2038],[-90.4876,20.2086],[-90.4868,20.2118],[-90.4821,20.2106],[-90.4861,20.2142],[-90.488,20.2192],[-90.4885,20.2513],[-90.4913,20.2623],[-90.492,20.2728],[-90.4894,20.2821],[-90.4892,20.3002],[-90.4923,20.3113],[-90.49,20.3206],[-90.49,20.3302],[-90.4948,20.3396],[-90.4925,20.3495],[-90.484,20.3713],[-90.4836,20.376],[-90.4965,20.4292],[-90.4963,20.4347],[-90.4922,20.4387],[-90.4933,20.4474],[-90.4962,20.4535],[-90.499,20.4536],[-90.5007,20.4558],[-90.5026,20.4641],[-90.5006,20.4689],[-90.4982,20.4692],[-90.4919,20.4673],[-90.4873,20.463],[-90.4851,20.463],[-90.4777,20.4678],[-90.4755,20.472],[-90.4759,20.4736],[-90.4779,20.4703],[-90.4824,20.4702],[-90.4902,20.476],[-90.495,20.4758],[-90.5008,20.4713],[-90.5024,20.472],[-90.5023,20.4977],[-90.497,20.5098],[-90.4936,20.5269],[-90.4858,20.5431],[-90.4824,20.5572],[-90.4752,20.5664],[-90.4579,20.6042],[-90.4556,20.6194],[-90.447,20.641],[-90.4469,20.656],[-90.4439,20.6766],[-90.4416,20.7094],[-90.4425,20.7163],[-90.4441,20.7178],[-90.448,20.7154],[-90.4532,20.6961],[-90.4517,20.6909],[-90.4527,20.6874],[-90.4547,20.6989],[-90.4538,20.7036],[-90.4485,20.7163],[-90.4393,20.7248],[-90.4347,20.727],[-90.4305,20.7374],[-90.4312,20.7466],[-90.4241,20.7463],[-90.4218,20.7476],[-90.4115,20.7583],[-90.4075,20.7691],[-90.4068,20.7764],[-90.4128,20.7767],[-90.4142,20.7803],[-90.4163,20.8081],[-90.4144,20.8192],[-90.4038,20.8411],[-90.4045,20.8468]]]},"geometry_name":"geom","properties":{"tipo":"Linea de costa","CVE_ENT":"04"}},{"type":"Feature","id":"179","geometry":{"type":"MultiLineString","coordinates":[[[-92.2982,20.987],[-92.3082,20.9761],[-92.3186,20.9712],[-92.3242,20.9742],[-92.3238,20.9763],[-92.3172,20.9806],[-92.3257,20.9796],[-92.3249,20.9839],[-92.3206,20.9856],[-92.3138,20.9857],[-92.3131,20.9846],[-92.3075,20.99],[-92.3025,20.9894],[-92.2992,20.989],[-92.2982,20.987]]]},"geometry_name":"geom","properties":{"tipo":"Linea de costa","CVE_ENT":"31"}},{"type":"Feature","id":"180","geometry":{"type":"MultiLineString","coordinates":[[[-86.8602,20.5473],[-86.8629,20.5457],[-86.8659,20.5475],[-86.8648,20.5482],[-86.8602,20.5473]]]},"geometry_name":"geom","properties":{"tipo":"Linea de costa","CVE_ENT":"23"}},{"type":"Feature","id":"182","geometry":{"type":"MultiLineString","coordinates":[[[-86.7299,20.5695],[-86.7379,20.5527],[-86.7493,20.5344],[-86.7578,20.5255],[-86.7634,20.5071],[-86.7715,20.4948],[-86.7824,20.4827],[-86.7936,20.4648],[-86.8077,20.454],[-86.8155,20.4433],[-86.8274,20.4378],[-86.8476,20.4168],[-86.8789,20.3784],[-86.8985,20.3442],[-86.9007,20.3443],[-86.901,20.3461],[-86.9028,20.3466],[-86.9081,20.3433],[-86.9312,20.3136],[-86.9413,20.3062],[-86.9473,20.3043],[-86.9575,20.2924],[-86.9646,20.2905],[-86.9882,20.2716],[-86.9944,20.2745],[-87.003,20.2974],[-87.0097,20.2994],[-87.017,20.2994],[-87.0105,20.3102],[-87.0099,20.3156],[-87.0137,20.3287],[-87.0247,20.3554],[-87.0249,20.3674],[-87.017,20.4116],[-87.0044,20.4336],[-86.9912,20.4474],[-86.9848,20.4631],[-86.961,20.5011],[-86.9565,20.5069],[-86.9518,20.5094],[-86.9473,20.5143],[-86.9374,20.5375],[-86.9275,20.5508],[-86.922,20.5537],[-86.9086,20.5575],[-86.8992,20.562],[-86.8964,20.565],[-86.8884,20.5628],[-86.8816,20.5577],[-86.8836,20.5534],[-86.8802,20.5444],[-86.8702,20.5375],[-86.865,20.5372],[-86.8572,20.5433],[-86.8578,20.5479],[-86.853,20.5499],[-86.8396,20.5497],[-86.8003,20.5567],[-86.79,20.5563],[-86.7718,20.5661],[-86.7736,20.5625],[-86.7724,20.5608],[-86.7687,20.5606],[-86.7642,20.5698],[-86.7598,20.5739],[-86.7409,20.5824],[-86.7346,20.5867],[-86.7316,20.591],[-86.7269,20.5922],[-86.7232,20.5904],[-86.7233,20.5869],[-86.7299,20.5695]]]},"geometry_name":"geom","properties":{"tipo":"Linea de costa","CVE_ENT":"23"}},{"type":"Feature","id":"198","geometry":{"type":"MultiLineString","coordinates":[[[-86.7269,21.2299],[-86.7184,21.2122],[-86.7104,21.2015],[-86.7184,21.2055],[-86.7416,21.234],[-86.7427,21.239],[-86.7401,21.2394],[-86.7385,21.2358],[-86.7399,21.2337],[-86.7304,21.2218],[-86.7454,21.2543],[-86.7531,21.2578],[-86.7487,21.2651],[-86.7472,21.2596],[-86.7391,21.2459],[-86.7269,21.2299]]]},"geometry_name":"geom","properties":{"tipo":"Linea de costa","CVE_ENT":"23"}},{"type":"Feature","id":"20","geometry":{"type":"MultiLineString","coordinates":[[[-90.9876,17.8155],[-90.9878,17.4231],[-90.9875,17.251],[-91.4397,17.251]]]},"geometry_name":"geom","properties":{"tipo":"Frontera","CVE_ENT":"27"}},{"type":"Feature","id":"201","geometry":{"type":"MultiLineString","coordinates":[[[-92.0805,21.8403],[-92.0792,21.8378],[-92.0816,21.8384],[-92.0805,21.8403]]]},"geometry_name":"geom","properties":{"tipo":"Linea de costa","CVE_ENT":"31"}},{"type":"Feature","id":"203","geometry":{"type":"MultiLineString","coordinates":[[[-88.2838,21.5631],[-88.2853,21.5628],[-88.2839,21.5645],[-88.2838,21.5631]]]},"geometry_name":"geom","properties":{"tipo":"Linea de costa","CVE_ENT":"31"}},{"type":"Feature","id":"204","geometry":{"type":"MultiLineString","coordinates":[[[-86.8557,21.4326],[-86.8704,21.4287],[-86.8785,21.4204],[-86.8883,21.4168],[-86.8862,21.4206],[-86.878,21.4225],[-86.8754,21.4262],[-86.879,21.4284],[-86.8796,21.4263],[-86.8828,21.4272],[-86.8873,21.4299],[-86.8876,21.4315],[-86.8841,21.4336],[-86.8801,21.4351],[-86.8742,21.4316],[-86.8689,21.4304],[-86.8535,21.4364],[-86.8517,21.436],[-86.8557,21.4326]]]},"geometry_name":"geom","properties":{"tipo":"Linea de costa","CVE_ENT":"23"}},{"type":"Feature","id":"205","geometry":{"type":"MultiLineString","coordinates":[[[-86.9041,21.4522],[-86.9132,21.4493],[-86.9136,21.4505],[-86.9096,21.4535],[-86.9071,21.4534],[-86.9023,21.457],[-86.9043,21.4598],[-86.9052,21.466],[-86.9032,21.466],[-86.9019,21.4573],[-86.9041,21.4522]]]},"geometry_name":"geom","properties":{"tipo":"Linea de costa","CVE_ENT":"23"}},{"type":"Feature","id":"206","geometry":{"type":"MultiLineString","coordinates":[[[-86.9276,21.4681],[-86.934,21.4668],[-86.9328,21.4715],[-86.9357,21.472],[-86.9361,21.4755],[-86.9281,21.47],[-86.9276,21.4681]]]},"geometry_name":"geom","properties":{"tipo":"Linea de costa","CVE_ENT":"23"}},{"type":"Feature","id":"207","geometry":{"type":"MultiLineString","coordinates":[[[-86.9108,21.4682],[-86.9118,21.4664],[-86.9203,21.4723],[-86.9237,21.4772],[-86.9229,21.4786],[-86.9219,21.4777],[-86.9172,21.476],[-86.9132,21.4719],[-86.9108,21.4682]]]},"geometry_name":"geom","properties":{"tipo":"Linea de costa","CVE_ENT":"23"}},{"type":"Feature","id":"208","geometry":{"type":"MultiLineString","coordinates":[[[-87.9347,21.6016],[-87.9161,21.5934],[-87.8912,21.5853],[-87.8616,21.5719],[-87.7968,21.5473],[-87.7278,21.5276],[-87.6973,21.5203],[-87.6429,21.5115],[-87.576,21.4961],[-87.5492,21.4909],[-87.5349,21.4902]]]},"geometry_name":"geom","properties":{"tipo":"Linea de costa","CVE_ENT":"31"}},{"type":"Feature","id":"209","geometry":{"type":"MultiLineString","coordinates":[[[-90.4045,20.8468],[-90.407,20.8486],[-90.3936,20.8758],[-90.3905,20.8892],[-90.3692,20.9541],[-90.3622,20.9689],[-90.3391,21.0046],[-90.3285,21.0156],[-90.3114,21.0281],[-90.1997,21.0926],[-90.1509,21.1253],[-90.1073,21.1473],[-90.0946,21.1556],[-90.0718,21.16],[-90.0534,21.1614],[-90.041,21.166],[-90.0161,21.1705],[-89.9966,21.1762],[-89.9794,21.1844],[-89.9333,21.2129],[-89.8977,21.2322],[-89.8644,21.2422],[-89.8482,21.2457],[-89.8433,21.2506],[-89.8054,21.2565],[-89.7689,21.2662],[-89.696,21.2817],[-89.6847,21.2828],[-89.665,21.2886],[-89.6705,21.3384],[-89.6761,21.3448],[-89.6811,21.3449],[-89.6842,21.3475],[-89.681,21.3492],[-89.6752,21.3485],[-89.6707,21.3457],[-89.6647,21.2887],[-89.6364,21.2907],[-89.5691,21.3022],[-89.5526,21.3076],[-89.4876,21.3176],[-89.4533,21.3222],[-89.4141,21.3272],[-89.396,21.3311],[-89.3228,21.3386],[-89.3114,21.3399],[-89.3087,21.3433],[-89.2851,21.3422],[-89.2259,21.3482],[-89.1853,21.3535],[-89.158,21.355],[-89.106,21.3586],[-89.0684,21.3676],[-89.0434,21.372],[-88.9997,21.3764],[-88.9714,21.3819],[-88.9502,21.3852],[-88.9208,21.3873],[-88.8887,21.3947],[-88.869,21.3965],[-88.859,21.3958],[-88.8393,21.3989],[-88.8265,21.4036],[-88.8227,21.4067],[-88.8141,21.4103],[-88.798,21.4128],[-88.7978,21.4159],[-88.7995,21.4174],[-88.8049,21.4155],[-88.7965,21.42],[-88.774,21.4246],[-88.7559,21.4262],[-88.7375,21.4311],[-88.6981,21.4507],[-88.6936,21.4568],[-88.6834,21.4652],[-88.6418,21.4964],[-88.6338,21.5065],[-88.6298,21.5143],[-88.6178,21.5214],[-88.6063,21.5248],[-88.5877,21.5268],[-88.545,21.5352],[-88.5309,21.5331],[-88.5005,21.5422],[-88.4623,21.5527],[-88.4228,21.5583],[-88.395,21.5656],[-88.3713,21.5664],[-88.3586,21.564],[-88.3473,21.557],[-88.3176,21.5509],[-88.2703,21.5562],[-88.2571,21.5622],[-88.2448,21.563],[-88.2383,21.5674],[-88.2382,21.5743],[-88.209,21.5947],[-88.1972,21.6012],[-88.1888,21.6037],[-88.178,21.6072],[-88.1744,21.6093],[-88.1748,21.6106],[-88.1702,21.6151],[-88.1604,21.6197],[-88.145,21.6237],[-88.1338,21.6249],[-88.1138,21.6228],[-88.0781,21.6146],[-88.0454,21.6111],[-88.0253,21.6098],[-87.9894,21.6109],[-87.963,21.6099],[-87.9347,21.6016]]]},"geometry_name":"geom","properties":{"tipo":"Linea de costa","CVE_ENT":"31"}},{"type":"Feature","id":"210","geometry":{"type":"MultiLineString","coordinates":[[[-86.9724,21.5305],[-86.9747,21.5264],[-86.9759,21.5343],[-86.9724,21.5305]]]},"geometry_name":"geom","properties":{"tipo":"Linea de costa","CVE_ENT":"23"}},{"type":"Feature","id":"211","geometry":{"type":"MultiLineString","coordinates":[[[-86.7971,21.5135],[-86.7909,21.4911],[-86.7842,21.458],[-86.7875,21.4594],[-86.7897,21.465],[-86.7909,21.4839],[-86.7938,21.496],[-86.797,21.5019],[-86.7988,21.5014],[-86.7958,21.4894],[-86.7988,21.4907],[-86.8038,21.5317],[-86.7986,21.5205],[-86.7971,21.5135]]]},"geometry_name":"geom","properties":{"tipo":"Linea de costa","CVE_ENT":"23"}},{"type":"Feature","id":"212","geometry":{"type":"MultiLineString","coordinates":[[[-87.066,21.5705],[-87.0347,21.5603],[-87.0176,21.559],[-87.0099,21.5563],[-87.0057,21.5522],[-86.9997,21.537],[-86.9774,21.5161],[-86.9765,21.5238],[-86.9696,21.5291],[-86.9702,21.5313],[-86.9814,21.5394],[-86.9901,21.5433],[-86.9977,21.5414],[-86.9966,21.5513],[-86.9851,21.5515],[-86.9887,21.5579],[-86.9931,21.5605],[-86.9914,21.5635],[-86.9523,21.5147],[-86.9476,21.4952],[-86.9486,21.4918],[-86.9525,21.4886],[-86.9406,21.475],[-86.919,21.4402],[-86.9104,21.436],[-86.9072,21.4255],[-86.8923,21.4113],[-86.8867,21.4035],[-86.8855,21.3862],[-86.8792,21.3601],[-86.8759,21.3501],[-86.8618,21.3231],[-86.8611,21.3188],[-86.8645,21.3135],[-86.8643,21.3039],[-86.8614,21.2872],[-86.8535,21.2763],[-86.8549,21.2707],[-86.8541,21.2628],[-86.8509,21.2559],[-86.8485,21.2519],[-86.8235,21.244],[-86.822,21.2471],[-86.8232,21.2514],[-86.8316,21.2537],[-86.8295,21.2675],[-86.8309,21.2724],[-86.8369,21.2725],[-86.8315,21.2818],[-86.8285,21.2822],[-86.8273,21.2791],[-86.8212,21.283],[-86.8268,21.2951],[-86.8213,21.316],[-86.8178,21.3189],[-86.8021,21.3258],[-86.799,21.3288],[-86.7925,21.3424],[-86.7953,21.3503],[-86.7949,21.3655],[-86.8085,21.3884],[-86.81,21.3975],[-86.8234,21.4068],[-86.8279,21.413],[-86.8236,21.4199],[-86.8221,21.4201],[-86.8098,21.4129],[-86.8052,21.4089],[-86.8039,21.4],[-86.7992,21.3888],[-86.7951,21.3859],[-86.7944,21.389],[-86.7999,21.4024],[-86.8013,21.4124],[-86.7958,21.4123],[-86.7937,21.3976],[-86.7898,21.3887],[-86.7911,21.3764],[-86.7904,21.3456],[-86.7971,21.3286],[-86.8116,21.303],[-86.8159,21.2833],[-86.812,21.2655],[-86.801,21.2387],[-86.802,21.2281],[-86.8007,21.2141],[-86.8018,21.212],[-86.8043,21.2048],[-86.8071,21.1809],[-86.8012,21.1602],[-86.7982,21.1551],[-86.7891,21.1474],[-86.7798,21.1462],[-86.7621,21.1367],[-86.7469,21.1372],[-86.7436,21.1363],[-86.7435,21.1336],[-86.7458,21.1325],[-86.7516,21.1245],[-86.7607,21.1074],[-86.7703,21.0848],[-86.7815,21.0493],[-86.7811,21.0389],[-86.779,21.0363],[-86.7774,21.0369],[-86.7786,21.0325],[-86.7877,21.0298],[-86.7921,21.034],[-86.8005,21.0352],[-86.8098,21.0292],[-86.813,21.0231],[-86.8219,21.0013],[-86.8287,20.9796],[-86.835,20.9545],[-86.8378,20.9355],[-86.8381,20.9287],[-86.8412,20.9258],[-86.8448,20.9183],[-86.8465,20.9048],[-86.8597,20.8925],[-86.8624,20.8869],[-86.8655,20.8719],[-86.8748,20.8473],[-86.8953,20.8263],[-86.9047,20.8124],[-86.9101,20.8125],[-86.921,20.8072],[-86.9425,20.7789],[-86.9476,20.7666],[-86.9571,20.759],[-86.9642,20.7478],[-86.9653,20.7374],[-86.9627,20.7301],[-86.9777,20.7228],[-86.9832,20.718],[-87.0102,20.7024],[-87.0184,20.6907],[-87.021,20.6811],[-87.0268,20.6697],[-87.051,20.6481],[-87.0596,20.6359],[-87.0718,20.625],[-87.0791,20.6142],[-87.0981,20.5947],[-87.1185,20.5774],[-87.1204,20.5771],[-87.126,20.5707],[-87.1292,20.5685],[-87.1323,20.5652],[-87.1369,20.5651],[-87.1428,20.5624],[-87.1667,20.5375],[-87.1749,20.5321],[-87.1838,20.5313],[-87.1877,20.5278],[-87.1898,20.5218],[-87.2174,20.5032],[-87.2313,20.4974],[-87.236,20.4887],[-87.2469,20.4831],[-87.2529,20.4775],[-87.2609,20.4675],[-87.2603,20.4654],[-87.2657,20.4589],[-87.2777,20.4505],[-87.2846,20.4431],[-87.2854,20.4398],[-87.2839,20.4382],[-87.2854,20.4352],[-87.2988,20.4154],[-87.3036,20.4106],[-87.3229,20.3865],[-87.3423,20.342],[-87.347,20.3392],[-87.354,20.3294],[-87.3541,20.3256],[-87.3518,20.3222],[-87.3564,20.3151],[-87.3559,20.3115],[-87.3634,20.2946],[-87.366,20.2947],[-87.3747,20.2886],[-87.3802,20.2818],[-87.3812,20.2774],[-87.3782,20.274],[-87.382,20.2672],[-87.386,20.2694],[-87.39,20.2668],[-87.4234,20.226],[-87.4541,20.1596],[-87.4728,20.1023],[-87.478,20.076],[-87.4766,20.0581],[-87.4789,20.0414],[-87.4759,20.0207],[-87.4778,20.0093],[-87.4765,20.0002],[-87.4715,19.9925],[-87.4643,19.9945],[-87.4638,19.986],[-87.4668,19.9835],[-87.468,19.9804],[-87.465,19.9586],[-87.4525,19.9332],[-87.4481,19.9292],[-87.4402,19.9308],[-87.4375,19.9299],[-87.436,19.927],[-87.4321,19.9082],[-87.4299,19.885],[-87.4319,19.8839],[-87.4396,19.8592],[-87.4508,19.8357],[-87.454,19.8335],[-87.4624,19.8317],[-87.4676,19.828],[-87.4736,19.8182],[-87.4769,19.8082],[-87.4768,19.8033],[-87.4683,19.7835],[-87.4698,19.7801],[-87.477,19.7772],[-87.4811,19.7812],[-87.4757,19.7815],[-87.4756,19.784],[-87.4865,19.787],[-87.4844,19.803],[-87.4744,19.8215],[-87.4759,19.8317],[-87.4705,19.8369],[-87.452,19.837],[-87.4487,19.851],[-87.4385,19.8664],[-87.4406,19.8703],[-87.4408,19.8764],[-87.4312,19.8883],[-87.4329,19.9086],[-87.4352,19.914],[-87.4383,19.9132],[-87.4444,19.9148],[-87.4549,19.9221],[-87.4577,19.9383],[-87.4673,19.9451],[-87.4717,19.9438],[-87.4732,19.939],[-87.4604,19.9154],[-87.4647,19.9016],[-87.4634,19.8934],[-87.4592,19.8877],[-87.4529,19.8883],[-87.4527,19.8858],[-87.4586,19.8703],[-87.4641,19.8613],[-87.4736,19.8562],[-87.4877,19.8326],[-87.4938,19.8109],[-87.4977,19.8069],[-87.5,19.8071],[-87.5079,19.804],[-87.515,19.799],[-87.5333,19.7956],[-87.5429,19.7973],[-87.5452,19.7957],[-87.5523,19.8003],[-87.5518,19.8052],[-87.5546,19.8085],[-87.5619,19.8048],[-87.5707,19.7955],[-87.5787,19.7903],[-87.5875,19.772],[-87.5996,19.7561],[-87.6065,19.739],[-87.6161,19.7239],[-87.6293,19.7096],[-87.6428,19.688],[-87.6529,19.65],[-87.6675,19.6157],[-87.6758,19.6142],[-87.68,19.6153],[-87.6841,19.6206],[-87.6858,19.6265],[-87.6809,19.625],[-87.6738,19.6258],[-87.669,19.6275],[-87.6604,19.6352],[-87.6586,19.6417],[-87.6619,19.6478],[-87.6512,19.6742],[-87.6497,19.6854],[-87.6661,19.6826],[-87.6934,19.6811],[-87.7093,19.6743],[-87.7405,19.6662],[-87.743,19.6609],[-87.743,19.6492],[-87.7417,19.6445],[-87.739,19.6418],[-87.7424,19.6191],[-87.748,19.599],[-87.7437,19.5902],[-87.7366,19.5856],[-87.7268,19.576],[-87.7237,19.575],[-87.7207,19.5779],[-87.7083,19.5735],[-87.7077,19.5715],[-87.7131,19.5684],[-87.7139,19.5612],[-87.7124,19.5577],[-87.7014,19.5503],[-87.698,19.5506],[-87.6816,19.5581],[-87.6764,19.5638],[-87.6808,19.5658],[-87.6897,19.5648],[-87.6932,19.5616],[-87.6892,19.5669],[-87.6768,19.5694],[-87.6698,19.5507],[-87.6711,19.5397],[-87.683,19.5329],[-87.6764,19.5347],[-87.6638,19.5294],[-87.6641,19.5211],[-87.673,19.519],[-87.6701,19.5099],[-87.6717,19.5075],[-87.67,19.5029],[-87.6592,19.5002],[-87.6504,19.5052],[-87.6377,19.524],[-87.6311,19.5399],[-87.6241,19.5474],[-87.6145,19.5528],[-87.5825,19.5565],[-87.5747,19.5598],[-87.5549,19.5638],[-87.5379,19.5597],[-87.5315,19.562],[-87.5332,19.5529],[-87.5362,19.5496],[-87.5344,19.5458],[-87.5298,19.5431],[-87.5256,19.5431],[-87.5255,19.5464],[-87.515,19.5631],[-87.5039,19.5693],[-87.4924,19.5707],[-87.5028,19.5757],[-87.5045,19.5746],[-87.5099,19.5764],[-87.5098,19.58],[-87.5048,19.5901],[-87.5011,19.5905],[-87.4921,19.5879],[-87.4819,19.5879],[-87.4517,19.596],[-87.4519,19.6007],[-87.4623,19.6075],[-87.4562,19.6158],[-87.4497,19.6176],[-87.4451,19.6228],[-87.4523,19.6351],[-87.4532,19.6358],[-87.4545,19.6339],[-87.4555,19.6348],[-87.4571,19.6427],[-87.4545,19.648],[-87.453,19.6476],[-87.4525,19.6416],[-87.4483,19.6321],[-87.4283,19.6189],[-87.4204,19.607],[-87.4101,19.5984],[-87.4143,19.5641],[-87.4165,19.5574],[-87.42,19.5576],[-87.4234,19.5517],[-87.4241,19.5453],[-87.4223,19.5388],[-87.4278,19.5278],[-87.4309,19.5167],[-87.431,19.5072],[-87.4287,19.4986],[-87.4327,19.4861],[-87.4391,19.4738],[-87.4711,19.4449],[-87.4868,19.4395],[-87.4918,19.4364],[-87.5038,19.4241],[-87.5206,19.3999],[-87.5257,19.3953],[-87.5326,19.3928],[-87.5422,19.3919],[-87.5583,19.3917],[-87.5646,19.3939],[-87.5647,19.3971],[-87.5584,19.3954],[-87.5576,19.3928],[-87.5536,19.3928],[-87.5441,19.3975],[-87.5407,19.4009],[-87.538,19.4127],[-87.5393,19.4185],[-87.5358,19.4284],[-87.5475,19.4277],[-87.555,19.426],[-87.5656,19.4171],[-87.5763,19.414],[-87.5897,19.4033],[-87.5939,19.4042],[-87.596,19.4031],[-87.6059,19.3962],[-87.611,19.3894],[-87.621,19.3816],[-87.6255,19.3803],[-87.636,19.3734],[-87.6456,19.3466],[-87.6502,19.3393],[-87.655,19.3198],[-87.6563,19.3028],[-87.6675,19.2974],[-87.6691,19.2952],[-87.6684,19.2914],[-87.6649,19.2908],[-87.6599,19.2874],[-87.6579,19.2821],[-87.6612,19.2607],[-87.6744,19.2489],[-87.6869,19.2348],[-87.6865,19.2309],[-87.6764,19.2297],[-87.6736,19.228],[-87.6738,19.2235],[-87.6796,19.2226],[-87.6838,19.2183],[-87.6779,19.1999],[-87.6736,19.194],[-87.6708,19.1911],[-87.6579,19.1839],[-87.6396,19.18],[-87.6393,19.1778],[-87.6362,19.1777],[-87.63,19.1834],[-87.6244,19.1917],[-87.6085,19.2267],[-87.5868,19.2461],[-87.5778,19.2698],[-87.5821,19.2675],[-87.5895,19.2597],[-87.5947,19.2501],[-87.5992,19.245],[-87.6083,19.242],[-87.6124,19.2387],[-87.612,19.2401],[-87.605,19.2482],[-87.5939,19.2548],[-87.5879,19.2633],[-87.5808,19.2698],[-87.569,19.2782],[-87.5665,19.2852],[-87.563,19.2898],[-87.5543,19.2964],[-87.5389,19.3068],[-87.5229,19.3058],[-87.5161,19.3082],[-87.5138,19.3103],[-87.5126,19.3157],[-87.5071,19.3214],[-87.501,19.3243],[-87.4694,19.3245],[-87.4535,19.313],[-87.4462,19.3115],[-87.4751,19.2811],[-87.4897,19.2607],[-87.5163,19.2362],[-87.5196,19.2357],[-87.526,19.2303],[-87.5279,19.2272],[-87.5357,19.212],[-87.5396,19.1998],[-87.5408,19.1551],[-87.5483,19.1455],[-87.55,19.1186],[-87.5513,19.0825],[-87.5539,19.0737],[-87.5563,19.0686],[-87.562,19.0686],[-87.5666,19.0626],[-87.5712,19.053],[-87.5735,19.043],[-87.5807,19.0329],[-87.5903,19.0066],[-87.6005,18.9917],[-87.6053,18.9877],[-87.6092,18.9721],[-87.6142,18.9625],[-87.6172,18.9504],[-87.6256,18.9432],[-87.6315,18.9264],[-87.6314,18.9038],[-87.6337,18.8979],[-87.6394,18.8928],[-87.642,18.8843],[-87.6425,18.8759],[-87.6408,18.8666],[-87.6424,18.8596],[-87.6539,18.8463],[-87.6543,18.8424],[-87.6635,18.8222],[-87.6689,18.8018],[-87.6682,18.7699],[-87.6722,18.7562],[-87.6811,18.7419],[-87.7056,18.7202],[-87.7118,18.7101],[-87.7153,18.6941],[-87.7252,18.6685],[-87.7292,18.6283],[-87.7316,18.6236],[-87.7394,18.582],[-87.74,18.5471],[-87.7448,18.529],[-87.7578,18.5142],[-87.7619,18.4973],[-87.7616,18.4773],[-87.7643,18.4602],[-87.7615,18.4516],[-87.7614,18.4415],[-87.7646,18.4333],[-87.7642,18.4192],[-87.7661,18.4124],[-87.7713,18.4016],[-87.7771,18.3973],[-87.7885,18.3837],[-87.7936,18.3718],[-87.7986,18.3642],[-87.8021,18.3523],[-87.8197,18.3313],[-87.8279,18.3105],[-87.8341,18.2848],[-87.8367,18.2478],[-87.8416,18.2293],[-87.8418,18.2112],[-87.8456,18.1895],[-87.8496,18.1844],[-87.8563,18.1813],[-87.8602,18.1898],[-87.8675,18.1882],[-87.9024,18.1427],[-87.9255,18.1602],[-88.0303,18.1604],[-88.0304,18.4148],[-88.2496,18.4156],[-88.2501,18.4731],[-88.2608,18.4749],[-88.289,18.4753],[-88.3045,18.4788],[-88.3104,18.4852],[-88.3192,18.4879]]]},"geometry_name":"geom","properties":{"tipo":"Linea de costa","CVE_ENT":"23"}},{"type":"Feature","id":"212","geometry":{"type":"MultiLineString","coordinates":[[[-88.3192,18.4879],[-88.3269,18.4902],[-88.3511,18.4845],[-88.3623,18.4867],[-88.3672,18.4861],[-88.3768,18.4792],[-88.3801,18.4789],[-88.387,18.4816],[-88.4024,18.4967],[-88.4175,18.4925],[-88.4232,18.4877],[-88.4471,18.4756],[-88.4524,18.4822],[-88.4542,18.4885],[-88.4584,18.4896],[-88.4666,18.4882],[-88.4717,18.4896],[-88.4743,18.4945],[-88.4764,18.4947],[-88.4964,18.4771],[-88.5176,18.4635],[-88.5206,18.4593],[-88.5279,18.4354],[-88.5293,18.4197],[-88.5319,18.4082],[-88.5516,18.3761],[-88.5513,18.3732],[-88.5459,18.3684],[-88.5444,18.36],[-88.5684,18.3313],[-88.5728,18.3232],[-88.5834,18.3145],[-88.6058,18.2917],[-88.605,18.2906],[-88.5987,18.2912],[-88.5973,18.2889],[-88.6023,18.2683],[-88.6064,18.2644],[-88.6044,18.2415],[-88.6101,18.2333],[-88.6189,18.2237],[-88.6323,18.2157],[-88.6416,18.2164],[-88.6484,18.2096],[-88.6735,18.1942],[-88.6867,18.1947],[-88.6976,18.1824],[-88.6959,18.1791],[-88.6844,18.1778],[-88.6801,18.1602],[-88.696,18.1469],[-88.705,18.1327],[-88.7138,18.1142],[-88.7144,18.1062],[-88.7121,18.1041],[-88.7103,18.097],[-88.7157,18.0942],[-88.7196,18.0839],[-88.7192,18.0811],[-88.7154,18.0808],[-88.7139,18.0754],[-88.7203,18.0595],[-88.7315,18.0496],[-88.736,18.0484],[-88.758,18.0356],[-88.7667,18.0343],[-88.7708,18.0292],[-88.768,18.0246],[-88.7669,18.016],[-88.773,18.0075],[-88.7844,17.998],[-88.7872,17.9936],[-88.7862,17.9883],[-88.7831,17.9854],[-88.7843,17.9809],[-88.7963,17.9737],[-88.8042,17.9663],[-88.8071,17.9589],[-88.8143,17.9516],[-88.8445,17.9395],[-88.8522,17.9335],[-88.859,17.9245],[-88.8555,17.9205],[-88.8542,17.9101],[-88.8549,17.9042],[-88.8598,17.8945],[-88.8776,17.8944],[-88.8829,17.8962],[-88.8867,17.9074],[-88.8963,17.9061],[-88.9131,17.9141],[-88.9239,17.9235],[-88.9314,17.9337],[-88.9374,17.9464],[-88.9419,17.9506],[-88.9448,17.9591],[-88.9476,17.9589],[-88.9598,17.9517],[-88.9692,17.9526],[-88.976,17.9562],[-88.9833,17.958],[-88.9851,17.9565],[-88.9859,17.9475],[-88.9872,17.9473],[-88.9913,17.9517],[-88.9981,17.9702],[-89.0006,17.9844],[-89.0064,17.9878],[-89.0216,17.9927],[-89.0286,17.9973],[-89.0281,18.0019],[-89.0301,18.0035],[-89.0382,18.0046],[-89.0527,17.9985],[-89.0555,17.9926],[-89.0586,17.9903],[-89.0674,17.9908],[-89.0764,17.9938],[-89.0802,17.9927],[-89.0948,17.9844],[-89.1116,17.9698],[-89.1167,17.9689],[-89.1217,17.9718],[-89.1242,17.9753],[-89.1327,17.972],[-89.134,17.9712],[-89.1327,17.9686],[-89.1338,17.9616],[-89.1362,17.9554],[-89.1481,17.9424],[-89.152,17.9403]]]},"geometry_name":"geom","properties":{"tipo":"Frontera","CVE_ENT":"23"}},{"type":"Feature","id":"213","geometry":{"type":"MultiLineString","coordinates":[[[-87.004,21.5631],[-87.0093,21.5597],[-87.0094,21.566],[-87.0042,21.5677],[-87.004,21.5631]]]},"geometry_name":"geom","properties":{"tipo":"Linea de costa","CVE_ENT":"23"}},{"type":"Feature","id":"214","geometry":{"type":"MultiLineString","coordinates":[[[-87.0195,21.5693],[-87.0219,21.5694],[-87.0228,21.5738],[-87.0187,21.5707],[-87.0195,21.5693]]]},"geometry_name":"geom","properties":{"tipo":"Linea de costa","CVE_ENT":"23"}},{"type":"Feature","id":"215","geometry":{"type":"MultiLineString","coordinates":[[[-87.5349,21.4902],[-87.4881,21.485],[-87.4859,21.4833],[-87.4866,21.4653],[-87.4803,21.4598],[-87.4732,21.4572],[-87.4642,21.4571],[-87.4499,21.4647],[-87.4376,21.4689],[-87.4311,21.4686],[-87.403,21.4574],[-87.3854,21.4551],[-87.3694,21.4488],[-87.3554,21.4468],[-87.3494,21.438],[-87.3411,21.4323],[-87.329,21.4326],[-87.3214,21.4357],[-87.3193,21.4393],[-87.3158,21.4414],[-87.2957,21.4346],[-87.2932,21.4357],[-87.2934,21.4396],[-87.2917,21.4396],[-87.2809,21.4342],[-87.2721,21.4323],[-87.2712,21.4384],[-87.2579,21.4367],[-87.2501,21.4341],[-87.2415,21.4238],[-87.2366,21.4199],[-87.2325,21.4186],[-87.2305,21.4212],[-87.2282,21.4305],[-87.2217,21.4385],[-87.2156,21.4433],[-87.2059,21.445],[-87.1968,21.4413],[-87.1884,21.4397],[-87.1666,21.4497],[-87.1584,21.4633],[-87.1496,21.4649],[-87.1415,21.4605],[-87.1332,21.4595],[-87.1136,21.4706],[-87.1068,21.5059],[-87.1099,21.5106],[-87.111,21.5192],[-87.1079,21.525],[-87.1058,21.5253],[-87.1004,21.5278],[-87.0991,21.5326],[-87.1032,21.5454],[-87.1058,21.547],[-87.1247,21.5511],[-87.1288,21.5539],[-87.1102,21.5705],[-87.1058,21.578],[-87.0987,21.583],[-87.0947,21.5883],[-87.0857,21.5894],[-87.0776,21.5808],[-87.0787,21.5784],[-87.066,21.5705]]]},"geometry_name":"geom","properties":{"tipo":"Linea de costa","CVE_ENT":"23"}},{"type":"Feature","id":"216","geometry":{"type":"MultiLineString","coordinates":[[[-87.0242,21.5835],[-87,21.5714],[-86.9925,21.5657],[-86.9925,21.564],[-86.9957,21.5638],[-86.9984,21.566],[-87.0086,21.5691],[-87.0145,21.5698],[-87.0231,21.5802],[-87.0292,21.5759],[-87.0315,21.5761],[-87.0339,21.5783],[-87.0359,21.5844],[-87.042,21.5841],[-87.0407,21.5865],[-87.034,21.5858],[-87.0242,21.5835]]]},"geometry_name":"geom","properties":{"tipo":"Linea de costa","CVE_ENT":"23"}},{"type":"Feature","id":"217","geometry":{"type":"MultiLineString","coordinates":[[[-97.7846,22.2624],[-97.7927,22.2575],[-97.7937,22.2497],[-97.7928,22.212],[-97.7852,22.1663],[-97.7764,22.1328],[-97.7591,22.0803],[-97.7309,22.0153],[-97.6981,21.9565],[-97.6132,21.8309],[-97.5883,21.7987],[-97.5643,21.7708],[-97.5442,21.7501],[-97.5219,21.7294],[-97.4729,21.6899],[-97.4522,21.6676],[-97.4323,21.6509],[-97.3485,21.5898],[-97.3279,21.5672],[-97.3273,21.5629],[-97.3302,21.5584],[-97.3327,21.5513],[-97.3328,21.539],[-97.3293,21.5235],[-97.3318,21.5101],[-97.3396,21.4926],[-97.3524,21.4521],[-97.3753,21.3992],[-97.3987,21.363],[-97.4106,21.3378],[-97.4181,21.3096],[-97.4204,21.2939],[-97.4207,21.2587],[-97.4223,21.2464],[-97.4202,21.2309],[-97.4142,21.2069],[-97.3975,21.1609],[-97.365,21.0976],[-97.3435,21.0452],[-97.3283,21.016],[-97.3271,21.0075],[-97.3144,20.9833],[-97.3063,20.9724],[-97.3048,20.9641],[-97.2971,20.9464],[-97.2808,20.9139],[-97.2559,20.8691],[-97.2284,20.8303],[-97.2251,20.8192],[-97.2246,20.8111],[-97.2181,20.7959],[-97.2052,20.7761],[-97.2039,20.7584],[-97.1938,20.7397],[-97.1951,20.7354],[-97.1994,20.7305],[-97.2012,20.7246],[-97.1959,20.7203],[-97.1943,20.7007],[-97.1807,20.6707],[-97.1779,20.6631],[-97.1651,20.6415],[-97.1446,20.6143],[-97.1316,20.5998],[-97.1044,20.5705],[-97.0575,20.5237],[-97.0235,20.493],[-96.9989,20.4726],[-96.9915,20.469],[-96.9857,20.4638],[-96.9551,20.4174],[-96.9241,20.382],[-96.8494,20.3063],[-96.7845,20.2435],[-96.7837,20.2406],[-96.7713,20.2247],[-96.7174,20.1732],[-96.7102,20.1652],[-96.7055,20.1569],[-96.7012,20.1499],[-96.6858,20.1318],[-96.6454,20.0865],[-96.6023,20.0348],[-96.574,20.0039],[-96.5741,19.9919],[-96.5641,19.9716],[-96.5522,19.9551],[-96.5263,19.9248],[-96.5013,19.8997],[-96.492,19.8866],[-96.4841,19.8785],[-96.4493,19.8489],[-96.4468,19.8415],[-96.447,19.8302],[-96.4398,19.8171],[-96.438,19.8079],[-96.4263,19.7916],[-96.4229,19.7752],[-96.4104,19.7491],[-96.4045,19.7282],[-96.4039,19.7179],[-96.4069,19.7051],[-96.4063,19.7004],[-96.4015,19.6901],[-96.3948,19.6791],[-96.3978,19.6718],[-96.3984,19.6613],[-96.3963,19.6472],[-96.3739,19.6083],[-96.3717,19.6014],[-96.3772,19.595],[-96.3783,19.5899],[-96.3756,19.5664],[-96.3704,19.5535],[-96.3606,19.5369],[-96.3301,19.4975],[-96.3206,19.4868],[-96.3133,19.4809],[-96.3087,19.4628],[-96.3119,19.4589],[-96.3177,19.4556],[-96.3193,19.4528],[-96.3208,19.4326],[-96.3199,19.4184],[-96.3217,19.4143],[-96.3165,19.3952],[-96.3066,19.3731],[-96.3063,19.3699],[-96.3108,19.3568],[-96.3004,19.3309],[-96.2884,19.3153],[-96.2639,19.2912],[-96.2464,19.2793],[-96.2216,19.2654],[-96.2077,19.2593],[-96.1968,19.2573],[-96.1884,19.251],[-96.1767,19.2475],[-96.1647,19.2466],[-96.1538,19.2294],[-96.158,19.2262],[-96.1558,19.2319],[-96.1644,19.2455],[-96.1716,19.2469],[-96.1674,19.2229],[-96.165,19.2194],[-96.1555,19.2156],[-96.1332,19.218],[-96.1259,19.2163],[-96.123,19.2131],[-96.1234,19.2082],[-96.1255,19.2074],[-96.131,19.2082],[-96.1354,19.2141],[-96.1397,19.2133],[-96.138,19.2055],[-96.1355,19.2016],[-96.1279,19.1954],[-96.1236,19.1853],[-96.124,19.1809],[-96.1183,19.1717],[-96.1159,19.1693],[-96.1087,19.1676],[-96.1036,19.1647],[-96.0927,19.1515],[-96.0935,19.1482],[-96.0996,19.144],[-96.1052,19.1277],[-96.1035,19.1171],[-96.0981,19.1045],[-96.0985,19.1023],[-96.1002,19.1006],[-96.0982,19.0949],[-96.0883,19.0828],[-96.074,19.0715],[-96.0553,19.0626],[-96.0384,19.0577],[-96.017,19.0561],[-96.0059,19.0576],[-95.9928,19.0632],[-95.9826,19.064],[-95.9785,19.0623],[-95.972,19.0557],[-95.9698,19.0502],[-95.9652,18.996],[-95.9599,18.9628],[-95.9533,18.9448],[-95.9417,18.9269],[-95.9411,18.921],[-95.9434,18.9139],[-95.9408,18.9051],[-95.9282,18.8867],[-95.9108,18.8691],[-95.898,18.8571],[-95.8726,18.8389],[-95.8447,18.8239],[-95.8056,18.808],[-95.7834,18.8],[-95.7426,18.7887],[-95.7339,18.7796],[-95.7202,18.7688],[-95.7008,18.7582],[-95.6678,18.7436],[-95.629,18.7311],[-95.6024,18.7249],[-95.5663,18.7188],[-95.5253,18.7148],[-95.4371,18.7109],[-95.3575,18.711],[-95.2948,18.7136],[-95.2873,18.7152],[-95.2743,18.7088],[-95.2498,18.7039],[-95.2396,18.7049],[-95.2135,18.7033],[-95.1988,18.7045],[-95.1914,18.7098],[-95.1825,18.7071],[-95.1813,18.7046],[-95.1835,18.7024],[-95.1831,18.7],[-95.1796,18.6957],[-95.1658,18.6866],[-95.1464,18.6808],[-95.1295,18.6633],[-95.1265,18.6565],[-95.1216,18.6525],[-95.0997,18.6444],[-95.0893,18.6446],[-95.0795,18.6419],[-95.081,18.6308],[-95.0753,18.6248],[-95.065,18.6208],[-95.0597,18.6111],[-95.0601,18.6066],[-95.0543,18.5996],[-95.0495,18.5998],[-95.0521,18.5881],[-95.0494,18.5821],[-95.0338,18.5723],[-95.0112,18.5636],[-94.9886,18.5565],[-94.9762,18.5564],[-94.9511,18.5505],[-94.9244,18.548],[-94.8986,18.5488],[-94.8741,18.5487],[-94.8633,18.545],[-94.8429,18.5444],[-94.8166,18.5386],[-94.8103,18.534],[-94.8099,18.5307],[-94.8078,18.5282],[-94.7996,18.5249],[-94.7941,18.5141],[-94.7891,18.5077],[-94.7834,18.4937],[-94.7822,18.4837],[-94.7737,18.4492],[-94.7601,18.4354],[-94.7438,18.4217],[-94.7441,18.4118],[-94.7375,18.3952],[-94.7208,18.3784],[-94.7073,18.3682],[-94.6907,18.3586],[-94.6832,18.3511],[-94.6703,18.3392],[-94.6661,18.3324],[-94.662,18.3198],[-94.6556,18.31],[-94.6395,18.2974],[-94.6231,18.2871],[-94.6257,18.2855],[-94.6271,18.2744],[-94.6237,18.2503],[-94.6175,18.2314],[-94.6112,18.2194],[-94.6076,18.2049],[-94.5972,18.1935],[-94.5878,18.1856],[-94.5608,18.1699],[-94.5393,18.1611],[-94.5074,18.1533],[-94.4744,18.1507],[-94.4532,18.1519],[-94.4076,18.1597],[-94.3873,18.16],[-94.355,18.164],[-94.2928,18.1756],[-94.2401,18.188],[-94.1399,18.2118],[-94.13,18.2129]]]},"geometry_name":"geom","properties":{"tipo":"Linea de costa","CVE_ENT":"30"}},{"type":"Feature","id":"218","geometry":{"type":"MultiLineString","coordinates":[[[-87.0969,21.6045],[-87.0828,21.5969],[-87.0648,21.5948],[-87.0493,21.5896],[-87.0464,21.5873],[-87.0462,21.5851],[-87.0556,21.5865],[-87.0581,21.588],[-87.0581,21.5907],[-87.0678,21.5943],[-87.0884,21.5899],[-87.1058,21.6014],[-87.1058,21.5996],[-87.1055,21.5994],[-87.1058,21.5979],[-87.1187,21.5914],[-87.1233,21.5812],[-87.1235,21.5762],[-87.1295,21.5684],[-87.1402,21.5626],[-87.1484,21.5603],[-87.1535,21.5606],[-87.168,21.5549],[-87.1943,21.5341],[-87.2024,21.5306],[-87.2099,21.5196],[-87.2256,21.5164],[-87.2239,21.518],[-87.2099,21.521],[-87.207,21.526],[-87.2084,21.5274],[-87.2313,21.522],[-87.233,21.5236],[-87.2289,21.5264],[-87.2591,21.5233],[-87.2709,21.5262],[-87.2755,21.5236],[-87.2809,21.516],[-87.2898,21.5111],[-87.2948,21.5242],[-87.305,21.5275],[-87.3178,21.5295],[-87.3188,21.535],[-87.3229,21.5396],[-87.3298,21.5438],[-87.3285,21.5492],[-87.3574,21.5339],[-87.3619,21.5269],[-87.3624,21.5216],[-87.3646,21.5188],[-87.3716,21.5211],[-87.3755,21.5194],[-87.3759,21.5134],[-87.3853,21.5051],[-87.3903,21.5031],[-87.3973,21.5112],[-87.3956,21.5146],[-87.3877,21.5207],[-87.3688,21.5318],[-87.3601,21.5401],[-87.345,21.5605],[-87.3349,21.5662],[-87.308,21.5481],[-87.2809,21.5415],[-87.2496,21.5402],[-87.2212,21.5437],[-87.1986,21.5503],[-87.1471,21.5714],[-87.1293,21.583],[-87.1218,21.5934],[-87.1058,21.6049],[-87.0969,21.6045]]]},"geometry_name":"geom","properties":{"tipo":"Linea de costa","CVE_ENT":"23"}},{"type":"Feature","id":"224","geometry":{"type":"MultiLineString","coordinates":[[[-91.386,22.1123],[-91.3869,22.1107],[-91.3875,22.1116],[-91.386,22.1123]]]},"geometry_name":"geom","properties":{"tipo":"Linea de costa","CVE_ENT":"31"}},{"type":"Feature","id":"225","geometry":{"type":"MultiLineString","coordinates":[[[-91.4074,22.1183],[-91.4082,22.1175],[-91.4092,22.1191],[-91.4074,22.1183]]]},"geometry_name":"geom","properties":{"tipo":"Linea de costa","CVE_ENT":"31"}},{"type":"Feature","id":"226","geometry":{"type":"MultiLineString","coordinates":[[[-91.3803,22.1165],[-91.3835,22.1154],[-91.3836,22.117],[-91.3809,22.1173],[-91.3803,22.1165]]]},"geometry_name":"geom","properties":{"tipo":"Linea de costa","CVE_ENT":"31"}},{"type":"Feature","id":"227","geometry":{"type":"MultiLineString","coordinates":[[[-91.4055,22.1192],[-91.4045,22.1176],[-91.4056,22.1178],[-91.4055,22.1192]]]},"geometry_name":"geom","properties":{"tipo":"Linea de costa","CVE_ENT":"31"}},{"type":"Feature","id":"228","geometry":{"type":"MultiLineString","coordinates":[[[-91.3881,22.1228],[-91.3884,22.122],[-91.3896,22.1236],[-91.3881,22.1228]]]},"geometry_name":"geom","properties":{"tipo":"Linea de costa","CVE_ENT":"31"}},{"type":"Feature","id":"233","geometry":{"type":"MultiLineString","coordinates":[[[-89.6626,22.3715],[-89.6628,22.3686],[-89.6643,22.3707],[-89.6626,22.3715]]]},"geometry_name":"geom","properties":{"tipo":"Linea de costa","CVE_ENT":"31"}},{"type":"Feature","id":"234","geometry":{"type":"MultiLineString","coordinates":[[[-89.668,22.369],[-89.674,22.368],[-89.6657,22.3728],[-89.6654,22.3708],[-89.668,22.369]]]},"geometry_name":"geom","properties":{"tipo":"Linea de costa","CVE_ENT":"31"}},{"type":"Feature","id":"235","geometry":{"type":"MultiLineString","coordinates":[[[-89.6669,22.3804],[-89.6674,22.3793],[-89.668,22.3806],[-89.6669,22.3804]]]},"geometry_name":"geom","properties":{"tipo":"Linea de costa","CVE_ENT":"31"}},{"type":"Feature","id":"236","geometry":{"type":"MultiLineString","coordinates":[[[-89.6726,22.3785],[-89.6746,22.3769],[-89.6793,22.3781],[-89.6802,22.3803],[-89.6786,22.3815],[-89.6746,22.3807],[-89.6726,22.3785]]]},"geometry_name":"geom","properties":{"tipo":"Linea de costa","CVE_ENT":"31"}},{"type":"Feature","id":"237","geometry":{"type":"MultiLineString","coordinates":[[[-89.6791,22.3822],[-89.681,22.3803],[-89.6819,22.3809],[-89.68,22.3837],[-89.6791,22.3822]]]},"geometry_name":"geom","properties":{"tipo":"Linea de costa","CVE_ENT":"31"}},{"type":"Feature","id":"238","geometry":{"type":"MultiLineString","coordinates":[[[-89.6778,22.3876],[-89.6792,22.3875],[-89.6796,22.3901],[-89.6778,22.3876]]]},"geometry_name":"geom","properties":{"tipo":"Linea de costa","CVE_ENT":"31"}},{"type":"Feature","id":"239","geometry":{"type":"MultiLineString","coordinates":[[[-89.6742,22.3897],[-89.6746,22.3883],[-89.6759,22.3887],[-89.6756,22.3904],[-89.6742,22.3897]]]},"geometry_name":"geom","properties":{"tipo":"Linea de costa","CVE_ENT":"31"}},{"type":"Feature","id":"240","geometry":{"type":"MultiLineString","coordinates":[[[-89.7259,22.4243],[-89.7293,22.4245],[-89.7285,22.4285],[-89.7249,22.4269],[-89.7259,22.4243]]]},"geometry_name":"geom","properties":{"tipo":"Linea de costa","CVE_ENT":"31"}},{"type":"Feature","id":"241","geometry":{"type":"MultiLineString","coordinates":[[[-89.7207,22.4285],[-89.7197,22.4275],[-89.7209,22.4278],[-89.7207,22.4285]]]},"geometry_name":"geom","properties":{"tipo":"Linea de costa","CVE_ENT":"31"}},{"type":"Feature","id":"242","geometry":{"type":"MultiLineString","coordinates":[[[-89.7162,22.4304],[-89.7202,22.4305],[-89.7163,22.4318],[-89.7162,22.4304]]]},"geometry_name":"geom","properties":{"tipo":"Linea de costa","CVE_ENT":"31"}},{"type":"Feature","id":"243","geometry":{"type":"MultiLineString","coordinates":[[[-89.7275,22.4336],[-89.7279,22.4327],[-89.7285,22.4335],[-89.7275,22.4336]]]},"geometry_name":"geom","properties":{"tipo":"Linea de costa","CVE_ENT":"31"}},{"type":"Feature","id":"244","geometry":{"type":"MultiLineString","coordinates":[[[-89.7286,22.4298],[-89.7317,22.4247],[-89.7382,22.4346],[-89.7348,22.437],[-89.7304,22.4339],[-89.7286,22.4298]]]},"geometry_name":"geom","properties":{"tipo":"Linea de costa","CVE_ENT":"31"}},{"type":"Feature","id":"245","geometry":{"type":"MultiLineString","coordinates":[[[-89.739,22.4363],[-89.7396,22.433],[-89.7438,22.435],[-89.7366,22.4401],[-89.7355,22.4376],[-89.739,22.4363]]]},"geometry_name":"geom","properties":{"tipo":"Linea de costa","CVE_ENT":"31"}},{"type":"Feature","id":"246","geometry":{"type":"MultiLineString","coordinates":[[[-89.7315,22.4408],[-89.7315,22.4386],[-89.7335,22.4403],[-89.7315,22.4408]]]},"geometry_name":"geom","properties":{"tipo":"Linea de costa","CVE_ENT":"31"}},{"type":"Feature","id":"247","geometry":{"type":"MultiLineString","coordinates":[[[-89.7294,22.4431],[-89.7277,22.4425],[-89.7254,22.4427],[-89.7276,22.4395],[-89.7294,22.4401],[-89.7294,22.4431]]]},"geometry_name":"geom","properties":{"tipo":"Linea de costa","CVE_ENT":"31"}},{"type":"Feature","id":"248","geometry":{"type":"MultiLineString","coordinates":[[[-89.7232,22.4453],[-89.7236,22.4434],[-89.7259,22.4441],[-89.7256,22.4457],[-89.7232,22.4453]]]},"geometry_name":"geom","properties":{"tipo":"Linea de costa","CVE_ENT":"31"}},{"type":"Feature","id":"249","geometry":{"type":"MultiLineString","coordinates":[[[-89.7426,22.472],[-89.7448,22.4721],[-89.744,22.4759],[-89.7423,22.4759],[-89.7401,22.4726],[-89.7426,22.472]]]},"geometry_name":"geom","properties":{"tipo":"Linea de costa","CVE_ENT":"31"}},{"type":"Feature","id":"250","geometry":{"type":"MultiLineString","coordinates":[[[-89.7377,22.4439],[-89.7387,22.4402],[-89.7474,22.4428],[-89.7448,22.4445],[-89.7445,22.4466],[-89.7456,22.4541],[-89.7593,22.4702],[-89.7608,22.4758],[-89.7555,22.4842],[-89.7479,22.4754],[-89.7491,22.465],[-89.7488,22.4616],[-89.7387,22.4489],[-89.7377,22.4439]]]},"geometry_name":"geom","properties":{"tipo":"Linea de costa","CVE_ENT":"31"}},{"type":"Feature","id":"251","geometry":{"type":"MultiLineString","coordinates":[[[-89.7481,22.4843],[-89.7511,22.4844],[-89.7516,22.4863],[-89.7485,22.4868],[-89.7481,22.4843]]]},"geometry_name":"geom","properties":{"tipo":"Linea de costa","CVE_ENT":"31"}},{"type":"Feature","id":"252","geometry":{"type":"MultiLineString","coordinates":[[[-89.7495,22.4914],[-89.7522,22.4901],[-89.7543,22.4908],[-89.7541,22.4933],[-89.7498,22.4945],[-89.7495,22.4914]]]},"geometry_name":"geom","properties":{"tipo":"Linea de costa","CVE_ENT":"31"}},{"type":"Feature","id":"253","geometry":{"type":"MultiLineString","coordinates":[[[-89.7329,22.5024],[-89.732,22.4998],[-89.7246,22.5001],[-89.7243,22.498],[-89.7285,22.4905],[-89.7312,22.4908],[-89.7356,22.4953],[-89.736,22.5014],[-89.7329,22.5024]]]},"geometry_name":"geom","properties":{"tipo":"Linea de costa","CVE_ENT":"31"}},{"type":"Feature","id":"254","geometry":{"type":"MultiLineString","coordinates":[[[-89.7578,22.509],[-89.7579,22.5055],[-89.7609,22.506],[-89.7616,22.5075],[-89.7597,22.5097],[-89.7578,22.509]]]},"geometry_name":"geom","properties":{"tipo":"Linea de costa","CVE_ENT":"31"}},{"type":"Feature","id":"255","geometry":{"type":"MultiLineString","coordinates":[[[-89.771,22.5008],[-89.7671,22.499],[-89.7634,22.4992],[-89.757,22.491],[-89.7553,22.4857],[-89.7586,22.48],[-89.7607,22.4867],[-89.7665,22.4944],[-89.7712,22.4975],[-89.7783,22.4988],[-89.7845,22.5055],[-89.778,22.511],[-89.7741,22.5121],[-89.7691,22.5053],[-89.771,22.5008]]]},"geometry_name":"geom","properties":{"tipo":"Linea de costa","CVE_ENT":"31"}},{"type":"Feature","id":"256","geometry":{"type":"MultiLineString","coordinates":[[[-89.7357,22.5084],[-89.7385,22.5076],[-89.7391,22.5107],[-89.7363,22.5118],[-89.7357,22.5084]]]},"geometry_name":"geom","properties":{"tipo":"Linea de costa","CVE_ENT":"31"}},{"type":"Feature","id":"257","geometry":{"type":"MultiLineString","coordinates":[[[-89.7158,22.5067],[-89.7202,22.507],[-89.7202,22.5107],[-89.7172,22.5113],[-89.7153,22.5093],[-89.7158,22.5067]]]},"geometry_name":"geom","properties":{"tipo":"Linea de costa","CVE_ENT":"31"}},{"type":"Feature","id":"258","geometry":{"type":"MultiLineString","coordinates":[[[-89.7474,22.5065],[-89.7505,22.5061],[-89.751,22.5097],[-89.7454,22.5186],[-89.7432,22.518],[-89.7428,22.5135],[-89.7474,22.5065]]]},"geometry_name":"geom","properties":{"tipo":"Linea de costa","CVE_ENT":"31"}},{"type":"Feature","id":"259","geometry":{"type":"MultiLineString","coordinates":[[[-89.7298,22.5142],[-89.7312,22.5124],[-89.7345,22.5142],[-89.7357,22.5176],[-89.7313,22.5189],[-89.7304,22.5165],[-89.7298,22.5142]]]},"geometry_name":"geom","properties":{"tipo":"Linea de costa","CVE_ENT":"31"}},{"type":"Feature","id":"26","geometry":{"type":"MultiLineString","coordinates":[[[-89.152,17.9403],[-89.1517,17.8156],[-89.4928,17.8146],[-90.2455,17.8158],[-90.3606,17.8129],[-90.5863,17.8161],[-90.9876,17.8155]]]},"geometry_name":"geom","properties":{"tipo":"Frontera","CVE_ENT":"04"}},{"type":"Feature","id":"260","geometry":{"type":"MultiLineString","coordinates":[[[-89.7512,22.5186],[-89.7533,22.5187],[-89.7538,22.5228],[-89.7501,22.5201],[-89.7512,22.5186]]]},"geometry_name":"geom","properties":{"tipo":"Linea de costa","CVE_ENT":"31"}},{"type":"Feature","id":"261","geometry":{"type":"MultiLineString","coordinates":[[[-89.7491,22.5241],[-89.7513,22.5241],[-89.752,22.5284],[-89.7509,22.5287],[-89.7491,22.5241]]]},"geometry_name":"geom","properties":{"tipo":"Linea de costa","CVE_ENT":"31"}},{"type":"Feature","id":"262","geometry":{"type":"MultiLineString","coordinates":[[[-89.7371,22.5249],[-89.737,22.5217],[-89.7403,22.5225],[-89.7415,22.5295],[-89.7407,22.5282],[-89.7371,22.5249]]]},"geometry_name":"geom","properties":{"tipo":"Linea de costa","CVE_ENT":"31"}},{"type":"Feature","id":"263","geometry":{"type":"MultiLineString","coordinates":[[[-89.7394,22.5318],[-89.7386,22.5292],[-89.7405,22.53],[-89.7394,22.5318]]]},"geometry_name":"geom","properties":{"tipo":"Linea de costa","CVE_ENT":"31"}},{"type":"Feature","id":"264","geometry":{"type":"MultiLineString","coordinates":[[[-89.7389,22.536],[-89.7425,22.535],[-89.743,22.5389],[-89.7403,22.5368],[-89.7389,22.536]]]},"geometry_name":"geom","properties":{"tipo":"Linea de costa","CVE_ENT":"31"}},{"type":"Feature","id":"265","geometry":{"type":"MultiLineString","coordinates":[[[-89.7358,22.5376],[-89.7374,22.5365],[-89.7403,22.5381],[-89.7411,22.541],[-89.7365,22.5391],[-89.7358,22.5376]]]},"geometry_name":"geom","properties":{"tipo":"Linea de costa","CVE_ENT":"31"}},{"type":"Feature","id":"266","geometry":{"type":"MultiLineString","coordinates":[[[-89.7642,22.5628],[-89.7763,22.5607],[-89.7781,22.5626],[-89.775,22.5638],[-89.7642,22.5628]]]},"geometry_name":"geom","properties":{"tipo":"Linea de costa","CVE_ENT":"31"}},{"type":"Feature","id":"267","geometry":{"type":"MultiLineString","coordinates":[[[-89.7601,22.561],[-89.7632,22.5612],[-89.7633,22.5629],[-89.7623,22.5617],[-89.7601,22.561]]]},"geometry_name":"geom","properties":{"tipo":"Linea de costa","CVE_ENT":"31"}},{"type":"Feature","id":"268","geometry":{"type":"MultiLineString","coordinates":[[[-89.7782,22.5612],[-89.7795,22.5599],[-89.7803,22.5667],[-89.7782,22.5612]]]},"geometry_name":"geom","properties":{"tipo":"Linea de costa","CVE_ENT":"31"}},{"type":"Feature","id":"269","geometry":{"type":"MultiLineString","coordinates":[[[-89.7766,22.5688],[-89.7757,22.5649],[-89.7774,22.567],[-89.7766,22.5688]]]},"geometry_name":"geom","properties":{"tipo":"Linea de costa","CVE_ENT":"31"}},{"type":"Feature","id":"270","geometry":{"type":"MultiLineString","coordinates":[[[-89.7738,22.5722],[-89.7738,22.5668],[-89.7749,22.5727],[-89.7738,22.5722]]]},"geometry_name":"geom","properties":{"tipo":"Linea de costa","CVE_ENT":"31"}},{"type":"Feature","id":"271","geometry":{"type":"MultiLineString","coordinates":[[[-89.7635,22.5788],[-89.7648,22.577],[-89.7657,22.579],[-89.7626,22.5811],[-89.7619,22.5801],[-89.7635,22.5788]]]},"geometry_name":"geom","properties":{"tipo":"Linea de costa","CVE_ENT":"31"}},{"type":"Feature","id":"272","geometry":{"type":"MultiLineString","coordinates":[[[-89.7564,22.5821],[-89.7585,22.5762],[-89.7605,22.5812],[-89.7564,22.5821]]]},"geometry_name":"geom","properties":{"tipo":"Linea de costa","CVE_ENT":"31"}},{"type":"Feature","id":"273","geometry":{"type":"MultiLineString","coordinates":[[[-89.7537,22.5739],[-89.7552,22.5659],[-89.7575,22.5701],[-89.7529,22.5825],[-89.751,22.5787],[-89.7537,22.5739]]]},"geometry_name":"geom","properties":{"tipo":"Linea de costa","CVE_ENT":"31"}},{"type":"Feature","id":"274","geometry":{"type":"MultiLineString","coordinates":[[[-89.6655,22.5521],[-89.6538,22.5368],[-89.6369,22.5192],[-89.6191,22.4955],[-89.6122,22.4794],[-89.6091,22.4634],[-89.6086,22.4408],[-89.6116,22.4268],[-89.6292,22.3878],[-89.6378,22.3761],[-89.6468,22.3686],[-89.6602,22.3654],[-89.6622,22.3685],[-89.6613,22.3712],[-89.6473,22.3818],[-89.6463,22.3858],[-89.6494,22.3895],[-89.6527,22.3906],[-89.6531,22.3809],[-89.6565,22.3757],[-89.6629,22.3726],[-89.6656,22.374],[-89.6638,22.384],[-89.6607,22.3793],[-89.6581,22.385],[-89.6587,22.3901],[-89.6602,22.3915],[-89.6612,22.3894],[-89.6635,22.3891],[-89.6796,22.3964],[-89.6872,22.3976],[-89.6798,22.3866],[-89.683,22.38],[-89.6848,22.3791],[-89.6929,22.3814],[-89.6937,22.383],[-89.6908,22.3833],[-89.6875,22.3889],[-89.7022,22.4084],[-89.7127,22.4157],[-89.7299,22.421],[-89.7275,22.4242],[-89.7205,22.4235],[-89.7137,22.4218],[-89.7102,22.418],[-89.6939,22.4151],[-89.6897,22.416],[-89.6965,22.4275],[-89.7016,22.4325],[-89.7088,22.434],[-89.7198,22.4337],[-89.7275,22.435],[-89.7291,22.4367],[-89.7186,22.4486],[-89.7168,22.4517],[-89.7222,22.4573],[-89.7296,22.4583],[-89.7295,22.4601],[-89.7186,22.462],[-89.7143,22.465],[-89.7182,22.4721],[-89.722,22.4712],[-89.7224,22.4661],[-89.7259,22.4645],[-89.7316,22.4689],[-89.7251,22.4765],[-89.7235,22.4816],[-89.7276,22.4842],[-89.7302,22.475],[-89.7344,22.474],[-89.7356,22.4758],[-89.7326,22.4861],[-89.7133,22.4988],[-89.7147,22.5219],[-89.7168,22.5307],[-89.7261,22.5328],[-89.7253,22.5272],[-89.7216,22.5286],[-89.7195,22.5269],[-89.7236,22.5215],[-89.7276,22.5216],[-89.738,22.5338],[-89.7321,22.5374],[-89.7439,22.5486],[-89.7489,22.545],[-89.7446,22.5358],[-89.7442,22.5233],[-89.754,22.5323],[-89.7634,22.5198],[-89.7897,22.504],[-89.7938,22.5072],[-89.7955,22.5151],[-89.7956,22.5287],[-89.7941,22.5347],[-89.7841,22.546],[-89.7773,22.5585],[-89.7688,22.562],[-89.7641,22.5615],[-89.7647,22.5594],[-89.7616,22.5597],[-89.7487,22.5677],[-89.7439,22.5775],[-89.7449,22.5806],[-89.7511,22.5841],[-89.751,22.5854],[-89.7457,22.5857],[-89.733,22.5801],[-89.6976,22.5715],[-89.6707,22.5575],[-89.6655,22.5521]]]},"geometry_name":"geom","properties":{"tipo":"Linea de costa","CVE_ENT":"31"}},{"type":"Feature","id":"36","geometry":{"type":"MultiLineString","coordinates":[[[-94.13,18.2129],[-94.1239,18.2172],[-94.0431,18.2401],[-93.9386,18.274],[-93.8502,18.3006],[-93.8452,18.3033],[-93.844,18.306],[-93.8097,18.3156],[-93.6242,18.3797],[-93.5804,18.3935],[-93.5266,18.4082],[-93.4676,18.4217],[-93.3983,18.4333],[-93.3158,18.4382],[-93.2376,18.4395],[-93.2148,18.4423],[-93.205,18.4412],[-93.2068,18.4325],[-93.2015,18.4385],[-93.1934,18.4406],[-93.1943,18.4334],[-93.1868,18.4312],[-93.1837,18.4333],[-93.1837,18.4377],[-93.1892,18.4409],[-93.1895,18.4476],[-93.1888,18.443],[-93.1851,18.4413],[-93.0969,18.4429],[-93.0882,18.4419],[-93.071,18.436],[-93.0509,18.4332],[-93.0197,18.4315],[-92.9887,18.4323],[-92.9268,18.4376],[-92.898,18.4432],[-92.8703,18.4515],[-92.8383,18.4642],[-92.8108,18.4783],[-92.7867,18.4946],[-92.7638,18.514],[-92.7447,18.5331],[-92.7226,18.5588],[-92.7029,18.5897],[-92.7016,18.5932],[-92.7017,18.6037],[-92.6907,18.6183],[-92.6866,18.6193],[-92.677,18.6126],[-92.6722,18.6114],[-92.6297,18.6145],[-92.5894,18.6209],[-92.5311,18.6334],[-92.4688,18.651]]]},"geometry_name":"geom","properties":{"tipo":"Linea de costa","CVE_ENT":"27"}},{"type":"Feature","id":"40","geometry":{"type":"MultiLineString","coordinates":[[[-87.3878,18.3754],[-87.3897,18.3742],[-87.392,18.3745],[-87.3946,18.3808],[-87.3886,18.377],[-87.3878,18.3754]]]},"geometry_name":"geom","properties":{"tipo":"Linea de costa","CVE_ENT":"23"}},{"type":"Feature","id":"41","geometry":{"type":"MultiLineString","coordinates":[[[-87.3995,18.3798],[-87.4026,18.3776],[-87.4084,18.3803],[-87.4097,18.3864],[-87.4088,18.3901],[-87.407,18.3904],[-87.4016,18.3812],[-87.3995,18.3798]]]},"geometry_name":"geom","properties":{"tipo":"Linea de costa","CVE_ENT":"23"}},{"type":"Feature","id":"43","geometry":{"type":"MultiLineString","coordinates":[[[-87.4116,18.3921],[-87.4125,18.391],[-87.4207,18.3959],[-87.4213,18.3993],[-87.4175,18.3996],[-87.412,18.3951],[-87.4116,18.3921]]]},"geometry_name":"geom","properties":{"tipo":"Linea de costa","CVE_ENT":"23"}},{"type":"Feature","id":"44","geometry":{"type":"MultiLineString","coordinates":[[[-87.4261,18.4039],[-87.427,18.4029],[-87.4292,18.4048],[-87.4311,18.4085],[-87.4301,18.4095],[-87.426,18.4055],[-87.4261,18.4039]]]},"geometry_name":"geom","properties":{"tipo":"Linea de costa","CVE_ENT":"23"}},{"type":"Feature","id":"47","geometry":{"type":"MultiLineString","coordinates":[[[-87.4341,18.4209],[-87.438,18.4194],[-87.4392,18.4202],[-87.438,18.4226],[-87.4352,18.4236],[-87.4341,18.4209]]]},"geometry_name":"geom","properties":{"tipo":"Linea de costa","CVE_ENT":"23"}},{"type":"Feature","id":"51","geometry":{"type":"MultiLineString","coordinates":[[[-87.437,18.4306],[-87.4392,18.4285],[-87.4418,18.4297],[-87.4436,18.4502],[-87.4474,18.46],[-87.447,18.4616],[-87.4443,18.4626],[-87.44,18.4565],[-87.4388,18.4503],[-87.437,18.4306]]]},"geometry_name":"geom","properties":{"tipo":"Linea de costa","CVE_ENT":"23"}},{"type":"Feature","id":"53","geometry":{"type":"MultiLineString","coordinates":[[[-87.4407,18.4788],[-87.4446,18.4754],[-87.4472,18.4762],[-87.447,18.4802],[-87.445,18.5007],[-87.4421,18.5174],[-87.4406,18.5187],[-87.4372,18.5161],[-87.4416,18.4959],[-87.4407,18.4788]]]},"geometry_name":"geom","properties":{"tipo":"Linea de costa","CVE_ENT":"23"}},{"type":"Feature","id":"56","geometry":{"type":"MultiLineString","coordinates":[[[-87.4365,18.5554],[-87.4372,18.5546],[-87.4386,18.5559],[-87.4392,18.5604],[-87.4367,18.5623],[-87.4346,18.559],[-87.4365,18.5554]]]},"geometry_name":"geom","properties":{"tipo":"Linea de costa","CVE_ENT":"23"}},{"type":"Feature","id":"57","geometry":{"type":"MultiLineString","coordinates":[[[-87.3719,18.3782],[-87.3824,18.3744],[-87.3833,18.3751],[-87.3843,18.3802],[-87.3725,18.3848],[-87.3644,18.3934],[-87.3625,18.3999],[-87.3509,18.4195],[-87.3374,18.4347],[-87.3322,18.4438],[-87.3294,18.458],[-87.3282,18.4763],[-87.329,18.4883],[-87.3328,18.5054],[-87.3373,18.5157],[-87.337,18.523],[-87.3331,18.5335],[-87.3243,18.5493],[-87.3192,18.5545],[-87.3144,18.5555],[-87.312,18.5505],[-87.3232,18.5404],[-87.331,18.5264],[-87.32,18.4926],[-87.3229,18.4566],[-87.3296,18.4389],[-87.3466,18.4105],[-87.3565,18.4004],[-87.3582,18.3903],[-87.3619,18.3851],[-87.3719,18.3782]]]},"geometry_name":"geom","properties":{"tipo":"Linea de costa","CVE_ENT":"23"}},{"type":"Feature","id":"59","geometry":{"type":"MultiLineString","coordinates":[[[-87.4357,18.5829],[-87.4366,18.5822],[-87.4392,18.5875],[-87.4369,18.5897],[-87.4356,18.5889],[-87.4357,18.5829]]]},"geometry_name":"geom","properties":{"tipo":"Linea de costa","CVE_ENT":"23"}},{"type":"Feature","id":"61","geometry":{"type":"MultiLineString","coordinates":[[[-87.4395,18.5984],[-87.4407,18.5969],[-87.4425,18.6009],[-87.4401,18.6133],[-87.438,18.6128],[-87.4366,18.6095],[-87.4395,18.5984]]]},"geometry_name":"geom","properties":{"tipo":"Linea de costa","CVE_ENT":"23"}},{"type":"Feature","id":"62","geometry":{"type":"MultiLineString","coordinates":[[[-87.3271,18.5723],[-87.341,18.5735],[-87.3409,18.5751],[-87.3362,18.579],[-87.323,18.5851],[-87.324,18.592],[-87.3205,18.5988],[-87.3094,18.6036],[-87.3059,18.6016],[-87.3056,18.5972],[-87.3108,18.5858],[-87.317,18.5787],[-87.323,18.5736],[-87.3271,18.5723]]]},"geometry_name":"geom","properties":{"tipo":"Linea de costa","CVE_ENT":"23"}},{"type":"Feature","id":"67","geometry":{"type":"MultiLineString","coordinates":[[[-87.4364,18.6237],[-87.4377,18.6235],[-87.4379,18.6248],[-87.4303,18.6441],[-87.4231,18.6592],[-87.4203,18.66],[-87.4283,18.6329],[-87.4334,18.6287],[-87.4364,18.6237]]]},"geometry_name":"geom","properties":{"tipo":"Linea de costa","CVE_ENT":"23"}},{"type":"Feature","id":"68","geometry":{"type":"MultiLineString","coordinates":[[[-87.4078,18.6767],[-87.4101,18.6764],[-87.4106,18.6798],[-87.4024,18.6928],[-87.399,18.702],[-87.3968,18.7027],[-87.4025,18.6817],[-87.4078,18.6767]]]},"geometry_name":"geom","properties":{"tipo":"Linea de costa","CVE_ENT":"23"}},{"type":"Feature","id":"70","geometry":{"type":"MultiLineString","coordinates":[[[-87.391,18.7203],[-87.3925,18.7202],[-87.3927,18.7232],[-87.3895,18.7253],[-87.3877,18.7223],[-87.391,18.7203]]]},"geometry_name":"geom","properties":{"tipo":"Linea de costa","CVE_ENT":"23"}},{"type":"Feature","id":"71","geometry":{"type":"MultiLineString","coordinates":[[[-87.3859,18.7313],[-87.3869,18.7308],[-87.3875,18.7325],[-87.3852,18.7364],[-87.384,18.7325],[-87.3859,18.7313]]]},"geometry_name":"geom","properties":{"tipo":"Linea de costa","CVE_ENT":"23"}},{"type":"Feature","id":"72","geometry":{"type":"MultiLineString","coordinates":[[[-87.3032,18.7396],[-87.3051,18.7375],[-87.3069,18.7397],[-87.305,18.7419],[-87.3032,18.7396]]]},"geometry_name":"geom","properties":{"tipo":"Linea de costa","CVE_ENT":"23"}},{"type":"Feature","id":"73","geometry":{"type":"MultiLineString","coordinates":[[[-87.2626,18.619],[-87.2645,18.6188],[-87.2676,18.6228],[-87.2571,18.6429],[-87.2565,18.6533],[-87.2527,18.6674],[-87.2535,18.673],[-87.2651,18.699],[-87.2786,18.7357],[-87.2789,18.7379],[-87.2738,18.7394],[-87.2706,18.7377],[-87.2669,18.7322],[-87.2603,18.7126],[-87.2538,18.7004],[-87.2521,18.6904],[-87.2453,18.6835],[-87.2477,18.6643],[-87.2474,18.6453],[-87.2594,18.6228],[-87.2626,18.619]]]},"geometry_name":"geom","properties":{"tipo":"Linea de costa","CVE_ENT":"23"}},{"type":"Feature","id":"74","geometry":{"type":"MultiLineString","coordinates":[[[-87.2797,18.7408],[-87.2802,18.74],[-87.2807,18.7436],[-87.2797,18.7408]]]},"geometry_name":"geom","properties":{"tipo":"Linea de costa","CVE_ENT":"23"}},{"type":"Feature","id":"75","geometry":{"type":"MultiLineString","coordinates":[[[-87.3779,18.7393],[-87.3797,18.7387],[-87.38,18.7412],[-87.3764,18.7495],[-87.3724,18.753],[-87.3714,18.7512],[-87.3736,18.7436],[-87.3779,18.7393]]]},"geometry_name":"geom","properties":{"tipo":"Linea de costa","CVE_ENT":"23"}},{"type":"Feature","id":"76","geometry":{"type":"MultiLineString","coordinates":[[[-87.3152,18.7471],[-87.3158,18.7456],[-87.318,18.7469],[-87.3178,18.7484],[-87.3152,18.7471]]]},"geometry_name":"geom","properties":{"tipo":"Linea de costa","CVE_ENT":"23"}},{"type":"Feature","id":"77","geometry":{"type":"MultiLineString","coordinates":[[[-87.2983,18.7483],[-87.3034,18.7448],[-87.3029,18.7499],[-87.2991,18.751],[-87.2983,18.7483]]]},"geometry_name":"geom","properties":{"tipo":"Linea de costa","CVE_ENT":"23"}},{"type":"Feature","id":"78","geometry":{"type":"MultiLineString","coordinates":[[[-87.3203,18.7559],[-87.3197,18.7532],[-87.3218,18.754],[-87.3203,18.7559]]]},"geometry_name":"geom","properties":{"tipo":"Linea de costa","CVE_ENT":"23"}},{"type":"Feature","id":"80","geometry":{"type":"MultiLineString","coordinates":[[[-87.2898,18.7545],[-87.289,18.7517],[-87.2905,18.7528],[-87.2898,18.7545]]]},"geometry_name":"geom","properties":{"tipo":"Linea de costa","CVE_ENT":"23"}},{"type":"Feature","id":"81","geometry":{"type":"MultiLineString","coordinates":[[[-87.3203,18.759],[-87.3219,18.7589],[-87.3216,18.7625],[-87.3204,18.7622],[-87.3203,18.759]]]},"geometry_name":"geom","properties":{"tipo":"Linea de costa","CVE_ENT":"23"}},{"type":"Feature","id":"82","geometry":{"type":"MultiLineString","coordinates":[[[-87.3285,18.754],[-87.3304,18.7537],[-87.3318,18.7586],[-87.329,18.7639],[-87.3267,18.765],[-87.325,18.7617],[-87.3266,18.7557],[-87.3285,18.754]]]},"geometry_name":"geom","properties":{"tipo":"Linea de costa","CVE_ENT":"23"}},{"type":"Feature","id":"83","geometry":{"type":"MultiLineString","coordinates":[[[-87.3566,18.7656],[-87.3581,18.7655],[-87.3578,18.7668],[-87.3543,18.7705],[-87.3534,18.769],[-87.3566,18.7656]]]},"geometry_name":"geom","properties":{"tipo":"Linea de costa","CVE_ENT":"23"}},{"type":"Feature","id":"84","geometry":{"type":"MultiLineString","coordinates":[[[-87.3175,18.7667],[-87.3193,18.7666],[-87.3201,18.7702],[-87.3181,18.7701],[-87.3175,18.7667]]]},"geometry_name":"geom","properties":{"tipo":"Linea de costa","CVE_ENT":"23"}},{"type":"Feature","id":"85","geometry":{"type":"MultiLineString","coordinates":[[[-87.3605,18.7699],[-87.3615,18.7698],[-87.3611,18.772],[-87.3573,18.774],[-87.3568,18.7725],[-87.3605,18.7699]]]},"geometry_name":"geom","properties":{"tipo":"Linea de costa","CVE_ENT":"23"}},{"type":"Feature","id":"86","geometry":{"type":"MultiLineString","coordinates":[[[-87.3452,18.7793],[-87.3494,18.7787],[-87.3478,18.782],[-87.3391,18.7861],[-87.3395,18.7841],[-87.3452,18.7793]]]},"geometry_name":"geom","properties":{"tipo":"Linea de costa","CVE_ENT":"23"}}]}